{"type":"FeatureCollection","features":[{"type":"Feature","properties":{"gsp":"A"},"geometry":{"type":"Polygon","coordinates":[[[-0.3475,51.5596],[-0.4083,51.5418],[-0.4367,51.5477],[-0.4344,51.5603],[-0.4428,51.5653],[-0.438,51.5699],[-0.4569,51.5933],[-0.448,51.5966],[-0.4507,51.6098],[-0.4915,51.6307],[-0.5002,51.629],[-0.4967,51.6014],[-0.5197,51.6011],[-0.5392,51.638],[-0.5218,51.6545],[-0.5309,51.6605],[-0.5636,51.6686],[-0.5849,51.6499],[-0.5993,51.65],[-0.5998,51.6358],[-0.6088,51.6286],[-0.6222,51.6289],[-0.6576,51.6357],[-0.6572,51.6461],[-0.6719,51.6463],[-0.6717,51.6547],[-0.692,51.655],[-0.7311,51.6756],[-0.7424,51.6942],[-0.7534,51.6893],[-0.7732,51.6946],[-0.7905,51.6818],[-0.79,51.6697],[-0.8035,51.6568],[-0.8332,51.6571],[-0.8773,51.6812],[-0.8955,51.6724],[-0.9102,51.6763],[-0.9067,51.6837],[-0.9506,51.7335],[-0.9603,51.7347],[-0.9653,51.7218],[-0.9824,51.7134],[-1.0065,51.7224],[-1.0272,51.7206],[-1.0203,51.7339],[-1.0314,51.7435],[-1.0808,51.7566],[-1.0807,51.7728],[-1.122,51.787],[-1.1174,51.7992],[-1.1249,51.8075],[-1.11,51.8173],[-1.1407,51.8347],[-1.1216,51.8454],[-1.0726,51.834],[-1.0724,51.8431],[-1.0598,51.8432],[-1.0692,51.8747],[-1.0387,51.8766],[-1.0293,51.8907],[-0.9762,51.9016],[-0.9223,51.8882],[-0.8966,51.8914],[-0.8895,51.8795],[-0.8711,51.8822],[-0.8665,51.8929],[-0.8056,51.8981],[-0.8014,51.8907],[-0.7927,51.9024],[-0.7648,51.9035],[-0.7327,51.9232],[-0.755,51.9402],[-0.7296,51.9478],[-0.7531,51.963],[-0.7479,51.9682],[-0.7202,51.9761],[-0.7136,51.957],[-0.7028,51.9569],[-0.7071,51.9525],[-0.6557,51.9608],[-0.6459,51.9723],[-0.6556,51.9878],[-0.6691,51.9879],[-0.6688,51.9969],[-0.6438,52.0111],[-0.6497,52.0164],[-0.6402,52.0237],[-0.6421,52.0411],[-0.6526,52.0444],[-0.6521,52.0631],[-0.6057,52.0921],[-0.5951,52.1077],[-0.5881,52.1004],[-0.5832,52.1046],[-0.6071,52.1338],[-0.6423,52.145],[-0.6421,52.1534],[-0.6308,52.1552],[-0.63,52.1788],[-0.6168,52.1965],[-0.5963,52.1988],[-0.5833,52.2107],[-0.5514,52.2102],[-0.5404,52.2201],[-0.52,52.2194],[-0.5145,52.202],[-0.4874,52.2058],[-0.4492,52.2603],[-0.4528,52.2707],[-0.4782,52.276],[-0.4604,52.2865],[-0.496,52.2977],[-0.4907,52.3043],[-0.52,52.3168],[-0.4674,52.3223],[-0.4665,52.3389],[-0.4831,52.3409],[-0.4773,52.3485],[-0.4995,52.3668],[-0.4701,52.3738],[-0.4683,52.3828],[-0.4322,52.3864],[-0.433,52.3962],[-0.4157,52.4037],[-0.4171,52.4116],[-0.3623,52.4335],[-0.3702,52.44],[-0.3412,52.4669],[-0.3594,52.49],[-0.3496,52.5084],[-0.4135,52.5254],[-0.4026,52.5348],[-0.4018,52.5479],[-0.4195,52.559],[-0.4073,52.564],[-0.4157,52.5701],[-0.4134,52.5812],[-0.3964,52.5829],[-0.3885,52.5689],[-0.3757,52.5663],[-0.3548,52.5885],[-0.3568,52.6088],[-0.3474,52.6087],[-0.3472,52.6178],[-0.3571,52.6179],[-0.3589,52.6479],[-0.3083,52.6379],[-0.3085,52.6471],[-0.2775,52.651],[-0.2743,52.6472],[-0.2865,52.6453],[-0.284,52.6302],[-0.2682,52.6339],[-0.2653,52.6232],[-0.2475,52.6148],[-0.19,52.6155],[-0.1908,52.6273],[-0.1659,52.6266],[-0.1507,52.6474],[-0.1133,52.6677],[-0.0635,52.6751],[-0.0321,52.6651],[-0.0245,52.63],[-0.0089,52.6336],[-0.015,52.6576],[0.0167,52.6614],[0.0502,52.6824],[0.0442,52.7144],[0.0656,52.7291],[0.125,52.732],[0.1582,52.7426],[0.1848,52.7356],[0.2722,52.7728],[0.2451,52.7845],[0.2609,52.7959],[0.2531,52.7972],[0.2696,52.8175],[0.3161,52.8209],[0.3535,52.8103],[0.4365,52.8514],[0.4395,52.8746],[0.4818,52.9478],[0.5274,52.9776],[0.6183,52.9785],[0.6742,52.9936],[0.804,52.9805],[0.9816,52.9855],[1.1321,52.9562],[1.3125,52.9359],[1.4191,52.8954],[1.5976,52.8015],[1.6629,52.761],[1.7114,52.718],[1.7526,52.6306],[1.7426,52.5626],[1.7682,52.4808],[1.741,52.4481],[1.739,52.4041],[1.7312,52.3889],[1.682,52.3128],[1.6408,52.2787],[1.6289,52.185],[1.6125,52.1589],[1.5901,52.0879],[1.4801,52.0478],[1.4341,52.0004],[1.3468,51.95],[1.3232,51.9282],[1.3112,51.9305],[1.2998,51.9519],[1.2903,51.9553],[1.2796,51.953],[1.2958,51.9515],[1.3033,51.9342],[1.2859,51.9302],[1.2647,51.9077],[1.2967,51.8763],[1.2974,51.8645],[1.2839,51.8404],[1.2678,51.8374],[1.2186,51.8037],[1.1173,51.7685],[1.0433,51.7644],[0.9935,51.7834],[0.9178,51.7674],[0.8811,51.7513],[0.8852,51.7454],[0.9317,51.751],[0.9573,51.7319],[0.9495,51.7],[0.9568,51.6826],[0.9422,51.6455],[0.9743,51.621],[0.9185,51.5793],[0.7867,51.5167],[0.7284,51.525],[0.7289,51.5126],[0.7203,51.5094],[0.7059,51.5272],[0.6673,51.5324],[0.6161,51.5096],[0.4584,51.4991],[0.4478,51.4911],[0.4386,51.4586],[0.3902,51.4462],[0.3484,51.4478],[0.3119,51.4698],[0.27,51.4583],[0.215,51.4886],[0.1863,51.4871],[0.1735,51.5067],[0.1328,51.518],[0.1351,51.5366],[0.1241,51.5622],[0.134,51.5834],[0.114,51.6055],[0.1293,51.621],[0.093,51.6641],[0.0681,51.6769],[0.0436,51.6648],[0.0184,51.6228],[-0.0081,51.6089],[-0.032,51.607],[-0.0601,51.5756],[-0.0971,51.5755],[-0.1048,51.5646],[-0.1199,51.5755],[-0.1771,51.5709],[-0.2058,51.5553],[-0.2443,51.5726],[-0.2648,51.5615],[-0.2785,51.5403],[-0.3028,51.5319],[-0.308,51.5462],[-0.3475,51.5596]]]}},{"type":"Feature","properties":{"gsp":"B"},"geometry":{"type":"Polygon","coordinates":[[[-1.3326,52.1679],[-1.3342,52.1591],[-1.3586,52.1649],[-1.3794,52.1557],[-1.4102,52.1577],[-1.4395,52.1417],[-1.4756,52.15],[-1.477,52.1356],[-1.4944,52.1295],[-1.5147,52.1355],[-1.5212,52.1549],[-1.5451,52.1495],[-1.6033,52.1591],[-1.5997,52.1789],[-1.618,52.1751],[-1.6366,52.1819],[-1.6599,52.2143],[-1.6913,52.2107],[-1.8331,52.2724],[-1.8064,52.2878],[-1.8386,52.3006],[-1.8444,52.3192],[-1.7455,52.3144],[-1.7224,52.3375],[-1.6827,52.3317],[-1.6847,52.3447],[-1.6942,52.3507],[-1.6841,52.3633],[-1.655,52.3559],[-1.6317,52.3658],[-1.656,52.4086],[-1.6749,52.4147],[-1.6311,52.4922],[-1.6185,52.4921],[-1.6228,52.5082],[-1.6128,52.509],[-1.6035,52.5224],[-1.63,52.5461],[-1.6959,52.5366],[-1.6859,52.5435],[-1.6921,52.547],[-1.6888,52.5561],[-1.7654,52.5622],[-1.7636,52.5708],[-1.7875,52.5838],[-1.7976,52.6021],[-1.7853,52.612],[-1.7829,52.6381],[-1.7577,52.638],[-1.7612,52.647],[-1.752,52.6563],[-1.7333,52.6537],[-1.7204,52.6694],[-1.6966,52.6697],[-1.6907,52.7034],[-1.7298,52.7103],[-1.7263,52.7288],[-1.7175,52.7334],[-1.7541,52.7404],[-1.7793,52.7572],[-1.7689,52.7675],[-1.779,52.7954],[-1.8235,52.7942],[-1.8235,52.8045],[-1.8341,52.8046],[-1.8235,52.8131],[-1.8235,52.8299],[-1.8494,52.8526],[-1.9094,52.872],[-1.9309,52.8694],[-1.9521,52.8861],[-1.9474,52.8967],[-1.9048,52.9215],[-1.9013,52.932],[-1.8645,52.9393],[-1.8766,52.96],[-1.8721,52.9637],[-1.8799,52.9673],[-1.8674,52.974],[-1.868,52.985],[-1.8491,52.9842],[-1.8419,52.997],[-1.7962,53.0023],[-1.7907,53.0075],[-1.7947,53.0205],[-1.7588,53.0368],[-1.8114,53.0524],[-1.8099,53.0604],[-1.7852,53.0604],[-1.7942,53.0886],[-1.7819,53.0938],[-1.7863,53.108],[-1.8221,53.137],[-1.8208,53.1682],[-1.8741,53.1955],[-1.8885,53.1943],[-1.8847,53.1991],[-1.9093,53.1988],[-1.9568,53.2138],[-1.9625,53.2262],[-1.9873,53.2137],[-1.9902,53.2231],[-1.9752,53.228],[-1.9781,53.2324],[-1.9295,53.2329],[-1.8978,53.2422],[-1.894,53.2518],[-1.8705,53.2465],[-1.7902,53.2564],[-1.8246,53.2988],[-1.7689,53.2988],[-1.7688,53.3123],[-1.8097,53.3124],[-1.7606,53.3382],[-1.6855,53.3356],[-1.6709,53.3496],[-1.6734,53.3693],[-1.6632,53.3839],[-1.6542,53.3839],[-1.6636,53.3667],[-1.5906,53.3459],[-1.6122,53.3431],[-1.6328,53.3208],[-1.6282,53.3165],[-1.6111,53.3218],[-1.6112,53.3117],[-1.5928,53.3041],[-1.5245,53.3099],[-1.5035,53.2854],[-1.4538,53.2842],[-1.4671,53.2926],[-1.4479,53.3087],[-1.4285,53.3085],[-1.4238,53.3196],[-1.4138,53.3185],[-1.4233,53.3371],[-1.4111,53.3418],[-1.3899,53.3359],[-1.3717,53.3407],[-1.3478,53.33],[-1.299,53.3325],[-1.2885,53.3262],[-1.2956,53.3207],[-1.2914,53.3093],[-1.2541,53.3019],[-1.242,53.3022],[-1.236,53.3108],[-1.2006,53.3044],[-1.1848,53.3214],[-1.1366,53.3405],[-1.1036,53.3262],[-1.0842,53.3263],[-1.0587,53.3344],[-1.0639,53.3414],[-1.0329,53.3487],[-1.05,53.3629],[-1.0409,53.3683],[-1.0444,53.3774],[-1.0307,53.4016],[-1.04,53.4096],[-1.0124,53.4327],[-0.9958,53.4369],[-0.9832,53.468],[-1.0192,53.4837],[-1.0118,53.4903],[-0.9898,53.4873],[-0.9769,53.4969],[-0.928,53.4964],[-0.9148,53.4863],[-0.9162,53.4603],[-0.8722,53.4664],[-0.8041,53.4568],[-0.8057,53.447],[-0.8209,53.4405],[-0.8183,53.4271],[-0.7884,53.415],[-0.7907,53.4088],[-0.7778,53.3977],[-0.777,53.39],[-0.7904,53.3857],[-0.7753,53.3776],[-0.791,53.3635],[-0.7741,53.3643],[-0.7589,53.354],[-0.7649,53.3459],[-0.7568,53.3396],[-0.7665,53.3302],[-0.7499,53.3241],[-0.7536,53.3111],[-0.7471,53.3042],[-0.7513,53.2934],[-0.7632,53.2995],[-0.7782,53.2839],[-0.7641,53.2724],[-0.777,53.2469],[-0.7351,53.2439],[-0.7346,53.2653],[-0.712,53.2677],[-0.7123,53.2583],[-0.6811,53.2632],[-0.6776,53.2759],[-0.6908,53.2805],[-0.6971,53.2993],[-0.6441,53.298],[-0.6383,53.3102],[-0.6439,53.3181],[-0.6322,53.3225],[-0.6319,53.3314],[-0.5417,53.3327],[-0.4695,53.3409],[-0.4692,53.3475],[-0.4421,53.3397],[-0.3598,53.3411],[-0.3455,53.3229],[-0.3125,53.3321],[-0.2994,53.3254],[-0.2771,53.3405],[-0.2449,53.34],[-0.2137,53.323],[-0.2232,53.3201],[-0.2108,53.2983],[-0.1874,53.3037],[-0.1468,53.2945],[-0.1336,53.3075],[-0.1129,53.3043],[-0.0876,53.3147],[-0.0564,53.295],[-0.0564,53.2806],[-0.0383,53.2685],[0.0217,53.2702],[0.0188,53.2776],[0.0284,53.28],[0.0497,53.2713],[0.0585,53.2764],[0.0659,53.2738],[0.0628,53.2664],[0.1079,53.2608],[0.1113,53.2517],[0.1265,53.251],[0.1275,53.263],[0.1535,53.2838],[0.1305,53.295],[0.1562,53.302],[0.1755,53.3247],[0.197,53.3292],[0.1973,53.3354],[0.2357,53.3537],[0.2407,53.3588],[0.2329,53.3693],[0.2512,53.3736],[0.3293,53.2705],[0.3641,53.1919],[0.3452,53.0918],[0.304,53.084],[0.161,53.0071],[0.0906,52.9526],[0.0835,52.929],[0.0509,52.9089],[0.1803,52.8772],[0.2223,52.8244],[0.2696,52.8175],[0.2531,52.7972],[0.2609,52.7959],[0.2451,52.7845],[0.2722,52.7728],[0.1848,52.7356],[0.1582,52.7426],[0.125,52.732],[0.0656,52.7291],[0.0442,52.7144],[0.0502,52.6824],[0.0167,52.6614],[-0.015,52.6576],[-0.0089,52.6336],[-0.0245,52.63],[-0.0321,52.6651],[-0.0635,52.6751],[-0.1133,52.6677],[-0.1507,52.6474],[-0.1659,52.6266],[-0.1908,52.6273],[-0.19,52.6155],[-0.2475,52.6148],[-0.2653,52.6232],[-0.2682,52.6339],[-0.284,52.6302],[-0.2865,52.6453],[-0.2743,52.6472],[-0.2775,52.651],[-0.3085,52.6471],[-0.3083,52.6379],[-0.3589,52.6479],[-0.3571,52.6179],[-0.3472,52.6178],[-0.3474,52.6087],[-0.3568,52.6088],[-0.3548,52.5885],[-0.3757,52.5663],[-0.3885,52.5689],[-0.3964,52.5829],[-0.4134,52.5812],[-0.4157,52.5701],[-0.4073,52.564],[-0.4195,52.559],[-0.4018,52.5479],[-0.4026,52.5348],[-0.4135,52.5254],[-0.3496,52.5084],[-0.3594,52.49],[-0.3412,52.4669],[-0.3702,52.44],[-0.3623,52.4335],[-0.4171,52.4116],[-0.4157,52.4037],[-0.433,52.3962],[-0.4322,52.3864],[-0.4683,52.3828],[-0.4701,52.3738],[-0.4995,52.3668],[-0.4773,52.3485],[-0.4831,52.3409],[-0.4665,52.3389],[-0.4674,52.3223],[-0.52,52.3168],[-0.4907,52.3043],[-0.496,52.2977],[-0.4604,52.2865],[-0.4782,52.276],[-0.4528,52.2707],[-0.4492,52.2603],[-0.4874,52.2058],[-0.5145,52.202],[-0.52,52.2194],[-0.5404,52.2201],[-0.5514,52.2102],[-0.5833,52.2107],[-0.5963,52.1988],[-0.6168,52.1965],[-0.63,52.1788],[-0.6308,52.1552],[-0.6421,52.1534],[-0.6423,52.145],[-0.6071,52.1338],[-0.5832,52.1046],[-0.5881,52.1004],[-0.5951,52.1077],[-0.6057,52.0921],[-0.6521,52.0631],[-0.6526,52.0444],[-0.6421,52.0411],[-0.6402,52.0237],[-0.6497,52.0164],[-0.6438,52.0111],[-0.6688,51.9969],[-0.6691,51.9879],[-0.6556,51.9878],[-0.6459,51.9723],[-0.6557,51.9608],[-0.7071,51.9525],[-0.7028,51.9569],[-0.7136,51.957],[-0.7202,51.9761],[-0.7479,51.9682],[-0.7531,51.963],[-0.7296,51.9478],[-0.755,51.9402],[-0.7327,51.9232],[-0.7648,51.9035],[-0.7927,51.9024],[-0.8014,51.8907],[-0.8056,51.8981],[-0.8665,51.8929],[-0.8711,51.8822],[-0.8895,51.8795],[-0.8966,51.8914],[-0.9223,51.8882],[-0.9762,51.9016],[-1.0293,51.8907],[-1.0387,51.8766],[-1.057,51.8757],[-1.0581,51.8855],[-1.0935,51.8939],[-1.0793,51.9172],[-1.0865,51.9227],[-1.0706,51.9274],[-1.0776,51.9318],[-1.0621,51.9353],[-1.0545,51.948],[-1.0787,51.9434],[-1.0952,51.9571],[-1.053,52.0023],[-1.0596,52.0084],[-1.0883,52.0058],[-1.0957,52.0149],[-1.1151,52.0164],[-1.1341,51.9981],[-1.1962,51.9776],[-1.2185,51.9803],[-1.2306,51.9949],[-1.244,51.993],[-1.2442,51.9857],[-1.2833,51.9796],[-1.2888,51.9897],[-1.2783,52.0155],[-1.2952,52.0286],[-1.2948,52.0404],[-1.3129,52.0515],[-1.2975,52.0781],[-1.3182,52.0799],[-1.3212,52.087],[-1.2518,52.1015],[-1.3326,52.1679]]]}},{"type":"Feature","properties":{"gsp":"C"},"geometry":{"type":"Polygon","coordinates":[[[-0.0785,51.4198],[-0.1197,51.4188],[-0.1324,51.4084],[-0.1242,51.3977],[-0.1408,51.3876],[-0.1748,51.3935],[-0.1884,51.3854],[-0.2098,51.3883],[-0.2181,51.3802],[-0.2337,51.3882],[-0.261,51.3796],[-0.2764,51.3992],[-0.2896,51.4014],[-0.2781,51.4191],[-0.2894,51.4263],[-0.2768,51.4248],[-0.2531,51.4443],[-0.2906,51.4471],[-0.2766,51.4694],[-0.2813,51.4782],[-0.2574,51.4718],[-0.2442,51.4884],[-0.2546,51.5039],[-0.2456,51.5046],[-0.2505,51.5195],[-0.2434,51.5268],[-0.2508,51.5341],[-0.2804,51.5283],[-0.2906,51.5338],[-0.2443,51.5726],[-0.2058,51.5553],[-0.1771,51.5709],[-0.1199,51.5755],[-0.1048,51.5646],[-0.0971,51.5755],[-0.0601,51.5756],[-0.032,51.607],[-0.0081,51.6089],[0.0184,51.6228],[0.0436,51.6648],[0.0681,51.6769],[0.093,51.6641],[0.1293,51.621],[0.114,51.6055],[0.134,51.5834],[0.1241,51.5622],[0.1351,51.5366],[0.1328,51.518],[0.1735,51.5067],[0.1863,51.4871],[0.215,51.4886],[0.2449,51.4725],[0.2365,51.4653],[0.2344,51.4565],[0.2417,51.4538],[0.2366,51.4484],[0.2554,51.4381],[0.1874,51.4329],[0.1618,51.4212],[0.1598,51.4082],[0.149,51.4123],[0.1537,51.4353],[0.1228,51.4323],[0.12,51.4136],[0.0819,51.413],[0.0846,51.408],[0.0663,51.3989],[0.0486,51.3681],[0.0388,51.3672],[0.0312,51.3672],[0.0168,51.3955],[-0.0269,51.3817],[-0.0593,51.3973],[-0.0785,51.4198]]]}},{"type":"Feature","properties":{"gsp":"D"},"geometry":{"type":"MultiPolygon","coordinates":[[[[-3.0382,51.5542],[-3.0348,51.5575],[-3.0331,51.5566],[-3.0382,51.5542]]],[[[-3.7123,52.3616],[-3.7244,52.3663],[-3.8526,52.3383],[-3.8547,52.3325],[-3.9168,52.3281],[-3.9443,52.3093],[-3.9462,52.2981],[-3.9621,52.3017],[-3.9602,52.3129],[-3.9868,52.3263],[-4.0189,52.3201],[-4.0333,52.2904],[-4.0759,52.2626],[-4.1136,52.274],[-4.1309,52.2896],[-4.1747,52.3002],[-4.1319,52.3451],[-4.0983,52.4],[-4.0866,52.4488],[-4.0591,52.4877],[-4.0666,52.5237],[-4.0626,52.5369],[-4.0803,52.5447],[-4.1372,52.6103],[-4.1029,52.6693],[-4.0658,52.6906],[-4.0643,52.713],[-4.1587,52.8078],[-4.1586,52.8175],[-4.1365,52.8312],[-4.1273,52.8494],[-4.1555,52.8884],[-4.1516,52.9021],[-4.2211,52.9134],[-4.3136,52.9051],[-4.3267,52.8882],[-4.3882,52.8911],[-4.3955,52.8792],[-4.4558,52.8669],[-4.4691,52.8567],[-4.4664,52.8458],[-4.4921,52.8341],[-4.4945,52.8164],[-4.4543,52.8065],[-4.4691,52.7926],[-4.5091,52.7897],[-4.5171,52.7789],[-4.5349,52.7737],[-4.5504,52.7863],[-4.5519,52.8018],[-4.6064,52.8202],[-4.6376,52.7984],[-4.668,52.7953],[-4.6955,52.7796],[-4.7573,52.7821],[-4.7816,52.7524],[-4.8111,52.7448],[-4.8045,52.769],[-4.7867,52.7771],[-4.7762,52.7999],[-4.7342,52.8396],[-4.7328,52.8577],[-4.7036,52.8653],[-4.6959,52.8781],[-4.6765,52.8825],[-4.6561,52.9092],[-4.637,52.9123],[-4.5733,52.9521],[-4.556,52.9425],[-4.52,52.9476],[-4.4421,53.002],[-4.4106,53.0058],[-4.3609,53.0378],[-4.3486,53.0556],[-4.346,53.0852],[-4.3572,53.114],[-4.3757,53.1343],[-4.397,53.1412],[-4.4201,53.1315],[-4.4681,53.1781],[-4.4903,53.1759],[-4.5123,53.185],[-4.5133,53.2143],[-4.5337,53.2332],[-4.6054,53.2352],[-4.6351,53.2749],[-4.693,53.284],[-4.6915,53.2963],[-4.7087,53.3085],[-4.686,53.3274],[-4.5796,53.3418],[-4.5659,53.374],[-4.5818,53.398],[-4.6193,53.418],[-4.6164,53.4262],[-4.5984,53.4316],[-4.5698,53.4165],[-4.5523,53.4229],[-4.4995,53.4197],[-4.4345,53.4398],[-4.2865,53.4208],[-4.2679,53.4054],[-4.2574,53.3679],[-4.2199,53.3614],[-4.2127,53.3264],[-4.1981,53.3166],[-4.2032,53.3033],[-4.154,53.3108],[-4.1204,53.3253],[-4.0715,53.3197],[-4.0154,53.3254],[-4.0931,53.2579],[-4.0795,53.236],[-4.0409,53.2409],[-3.9869,53.2652],[-3.8509,53.3028],[-3.8528,53.3186],[-3.8861,53.3357],[-3.8741,53.3474],[-3.8298,53.3433],[-3.8132,53.3292],[-3.7723,53.3341],[-3.7141,53.3029],[-3.6147,53.2976],[-3.4826,53.3345],[-3.3194,53.3631],[-3.3053,53.3595],[-3.2931,53.3383],[-3.2563,53.3304],[-3.2485,53.3196],[-3.1051,53.2505],[-3.1198,53.2694],[-3.0981,53.2832],[-3.128,53.3228],[-3.2353,53.3865],[-3.0296,53.4532],[-3.0447,53.4644],[-3.071,53.513],[-3.1062,53.5379],[-3.112,53.5606],[-3.0436,53.6468],[-3.0197,53.6639],[-3.0205,53.6803],[-2.9617,53.7025],[-2.9468,53.688],[-2.9527,53.6821],[-2.9425,53.6757],[-2.9463,53.6677],[-2.9396,53.6577],[-2.9798,53.6223],[-2.9975,53.6267],[-3.0328,53.5939],[-3.0312,53.5859],[-2.979,53.5806],[-2.9416,53.5583],[-2.9318,53.5767],[-2.8972,53.5752],[-2.874,53.5436],[-2.8891,53.5333],[-2.8887,53.5236],[-2.8207,53.4939],[-2.8226,53.5053],[-2.7821,53.5311],[-2.7685,53.5135],[-2.7204,53.5106],[-2.7157,53.4991],[-2.7294,53.4945],[-2.6977,53.4604],[-2.6314,53.4423],[-2.6266,53.4351],[-2.5391,53.4521],[-2.5338,53.4421],[-2.5426,53.4187],[-2.5294,53.4119],[-2.5024,53.4161],[-2.5069,53.4051],[-2.4887,53.393],[-2.4481,53.413],[-2.4222,53.406],[-2.4214,53.3876],[-2.3751,53.3662],[-2.3215,53.3615],[-2.3104,53.3663],[-2.3122,53.3844],[-2.3045,53.3877],[-2.2917,53.3858],[-2.2788,53.3702],[-2.2891,53.3632],[-2.2814,53.3551],[-2.2838,53.3397],[-2.2676,53.3299],[-2.2658,53.3179],[-2.2864,53.3033],[-2.3013,53.3071],[-2.3104,53.2995],[-2.2709,53.2802],[-2.2974,53.2748],[-2.3051,53.229],[-2.2633,53.2071],[-2.2195,53.1958],[-2.2113,53.1793],[-2.2174,53.1692],[-2.245,53.1729],[-2.2507,53.1657],[-2.2362,53.1541],[-2.2062,53.1513],[-2.1865,53.136],[-2.2478,53.0902],[-2.2771,53.0859],[-2.2808,53.0782],[-2.3182,53.0814],[-2.3475,53.0564],[-2.3685,53.0598],[-2.38,53.0489],[-2.3978,53.0475],[-2.384,53.0413],[-2.3861,53.0335],[-2.3705,53.0146],[-2.3831,53.0077],[-2.381,52.9982],[-2.4383,52.9854],[-2.4347,52.9694],[-2.4813,52.9588],[-2.494,52.9683],[-2.5231,52.9697],[-2.5295,52.9472],[-2.5612,52.9649],[-2.5738,52.9625],[-2.5762,52.949],[-2.5664,52.9303],[-2.5786,52.9237],[-2.5673,52.9204],[-2.5752,52.9095],[-2.5685,52.8841],[-2.6229,52.8821],[-2.6382,52.8737],[-2.6215,52.8542],[-2.6189,52.8263],[-2.5713,52.8302],[-2.5484,52.8005],[-2.5658,52.7999],[-2.5746,52.8094],[-2.6039,52.8047],[-2.6038,52.7958],[-2.5927,52.7937],[-2.5923,52.7768],[-2.6537,52.774],[-2.6535,52.767],[-2.6916,52.7753],[-2.723,52.7644],[-2.7413,52.7727],[-2.7443,52.7872],[-2.8022,52.7929],[-2.8021,52.7867],[-2.8155,52.7866],[-2.8093,52.7792],[-2.8144,52.7748],[-2.8015,52.7762],[-2.8117,52.7635],[-2.8263,52.7601],[-2.8533,52.7695],[-2.8835,52.7616],[-2.8825,52.7481],[-2.9028,52.7456],[-2.9642,52.7498],[-2.9766,52.7437],[-2.9914,52.7683],[-3.0049,52.7645],[-3.0076,52.7549],[-3.0218,52.7521],[-2.9921,52.7438],[-2.9972,52.7379],[-2.9915,52.7338],[-2.9652,52.7322],[-2.9666,52.726],[-2.958,52.726],[-2.9612,52.7163],[-2.9781,52.7155],[-2.9776,52.7265],[-3.0005,52.7203],[-3.0204,52.7251],[-3.0254,52.7152],[-3.0199,52.7069],[-3.0469,52.6912],[-3.0416,52.6885],[-3.0457,52.6755],[-3.0386,52.6753],[-3.0512,52.6473],[-3.0834,52.6413],[-3.0599,52.6307],[-3.0733,52.6289],[-3.0936,52.6094],[-3.0895,52.5996],[-3.1173,52.5859],[-3.1395,52.5858],[-3.1115,52.5414],[-3.1369,52.5341],[-3.1313,52.5259],[-3.1576,52.5123],[-3.1451,52.4887],[-3.1804,52.4739],[-3.1972,52.4759],[-3.2307,52.4532],[-3.2615,52.4633],[-3.3462,52.4359],[-3.3639,52.4444],[-3.4032,52.4377],[-3.3967,52.432],[-3.4116,52.4303],[-3.4368,52.4035],[-3.4767,52.3914],[-3.5142,52.4118],[-3.5549,52.3923],[-3.5739,52.3718],[-3.5936,52.3715],[-3.586,52.3581],[-3.6354,52.37],[-3.6569,52.3557],[-3.6664,52.3555],[-3.6779,52.3684],[-3.7123,52.3616]]]]}},{"type":"Feature","properties":{"gsp":"E"},"geometry":{"type":"Polygon","coordinates":[[[-2.0249,51.8066],[-2.0221,51.7866],[-1.9984,51.7659],[-2.0171,51.7564],[-2.0184,51.7459],[-2.0304,51.7479],[-2.0555,51.7346],[-2.0542,51.7174],[-1.9999,51.7117],[-2.0045,51.699],[-1.9868,51.6906],[-1.9881,51.6691],[-2.0421,51.6628],[-2.0572,51.6723],[-2.0806,51.6535],[-2.173,51.6657],[-2.1826,51.6616],[-2.1796,51.6459],[-2.1868,51.6361],[-2.2516,51.6352],[-2.255,51.6304],[-2.2224,51.6221],[-2.2452,51.5814],[-2.2675,51.5826],[-2.2758,51.5733],[-2.2605,51.57],[-2.2676,51.5629],[-2.2616,51.5438],[-2.2664,51.536],[-2.2525,51.527],[-2.304,51.5042],[-2.3039,51.486],[-2.2914,51.4874],[-2.2888,51.478],[-2.2957,51.4586],[-2.2852,51.4578],[-2.2946,51.4288],[-2.3126,51.4224],[-2.3271,51.4371],[-2.3433,51.4395],[-2.4031,51.4316],[-2.4433,51.4174],[-2.4923,51.418],[-2.4935,51.4294],[-2.5082,51.4247],[-2.5254,51.4341],[-2.5269,51.444],[-2.5066,51.4453],[-2.4794,51.4597],[-2.4892,51.4747],[-2.4147,51.4824],[-2.4288,51.5029],[-2.4585,51.508],[-2.4831,51.4977],[-2.4969,51.5008],[-2.4881,51.5298],[-2.5092,51.5396],[-2.5242,51.5341],[-2.5168,51.5421],[-2.5268,51.5509],[-2.5133,51.5608],[-2.5311,51.5666],[-2.5596,51.592],[-2.59,51.584],[-2.6074,51.5916],[-2.6145,51.5828],[-2.6586,51.5966],[-2.6382,51.6092],[-2.646,51.6234],[-2.6169,51.6559],[-2.5867,51.6605],[-2.6307,51.6895],[-2.6323,51.7037],[-2.6531,51.7096],[-2.6695,51.7022],[-2.6878,51.7297],[-2.6726,51.7364],[-2.6627,51.7537],[-2.6805,51.7687],[-2.6717,51.7952],[-2.6786,51.8028],[-2.6594,51.8109],[-2.6608,51.8227],[-2.6503,51.8262],[-2.6665,51.8357],[-2.6931,51.8366],[-2.6973,51.8448],[-2.7114,51.8394],[-2.7198,51.8489],[-2.733,51.8392],[-2.7566,51.8459],[-2.7791,51.8668],[-2.7685,51.8806],[-2.8365,51.9062],[-2.842,51.9177],[-2.8619,51.9139],[-2.845,51.922],[-2.8781,51.9338],[-2.9683,51.9044],[-2.9769,51.9277],[-3.0079,51.927],[-3.0129,51.9445],[-3.0678,51.9835],[-3.0993,52.0226],[-3.0863,52.0411],[-3.066,52.0497],[-3.0662,52.0662],[-3.0733,52.0756],[-3.1131,52.0811],[-3.1227,52.1028],[-3.1055,52.1054],[-3.1049,52.1168],[-3.1313,52.125],[-3.136,52.1379],[-3.0832,52.1514],[-3.0835,52.1678],[-3.1022,52.2026],[-3.0722,52.213],[-3.0778,52.2166],[-3.072,52.2286],[-3.0533,52.2336],[-3.0546,52.242],[-3.0431,52.2428],[-3.0498,52.245],[-3.0465,52.2522],[-3.0267,52.2614],[-3.0417,52.2665],[-3.0463,52.2802],[-3.067,52.2844],[-3.0767,52.2985],[-3.1112,52.305],[-3.0997,52.3166],[-3.1072,52.3257],[-3.0992,52.3304],[-3.1036,52.3359],[-3.0958,52.3377],[-3.1039,52.3454],[-3.1552,52.3523],[-3.1617,52.3662],[-3.2097,52.3654],[-3.2283,52.382],[-3.255,52.3823],[-3.2931,52.4223],[-3.3349,52.4411],[-3.2669,52.4628],[-3.2307,52.4532],[-3.1972,52.4759],[-3.1804,52.4739],[-3.1451,52.4887],[-3.1576,52.5123],[-3.1313,52.5259],[-3.1369,52.5341],[-3.1115,52.5414],[-3.1395,52.5858],[-3.1173,52.5859],[-3.0895,52.5996],[-3.0936,52.6094],[-3.0733,52.6289],[-3.0599,52.6307],[-3.0834,52.6413],[-3.0512,52.6473],[-3.0386,52.6753],[-3.0457,52.6755],[-3.0416,52.6885],[-3.0469,52.6912],[-3.0199,52.7069],[-3.0254,52.7152],[-3.0204,52.7251],[-3.0005,52.7203],[-2.9776,52.7265],[-2.9781,52.7155],[-2.9612,52.7163],[-2.958,52.726],[-2.9666,52.726],[-2.9652,52.7322],[-2.9915,52.7338],[-2.9972,52.7379],[-2.9921,52.7438],[-3.0218,52.7521],[-3.0076,52.7549],[-3.0049,52.7645],[-2.9914,52.7683],[-2.9766,52.7437],[-2.9642,52.7498],[-2.9028,52.7456],[-2.8825,52.7481],[-2.8835,52.7616],[-2.8533,52.7695],[-2.8263,52.7601],[-2.8117,52.7635],[-2.8015,52.7762],[-2.8144,52.7748],[-2.8093,52.7792],[-2.8155,52.7866],[-2.8021,52.7867],[-2.8022,52.7929],[-2.7443,52.7872],[-2.7413,52.7727],[-2.723,52.7644],[-2.6916,52.7753],[-2.6535,52.767],[-2.6537,52.774],[-2.5923,52.7768],[-2.5927,52.7937],[-2.6038,52.7958],[-2.6039,52.8047],[-2.5746,52.8094],[-2.5658,52.7999],[-2.5484,52.8005],[-2.5713,52.8302],[-2.6189,52.8263],[-2.6215,52.8542],[-2.6382,52.8737],[-2.6229,52.8821],[-2.5685,52.8841],[-2.5752,52.9095],[-2.5673,52.9204],[-2.5786,52.9237],[-2.5664,52.9303],[-2.5762,52.949],[-2.5738,52.9625],[-2.5612,52.9649],[-2.5295,52.9472],[-2.5231,52.9697],[-2.494,52.9683],[-2.4813,52.9588],[-2.4347,52.9694],[-2.4366,52.9863],[-2.381,52.9982],[-2.3831,53.0077],[-2.3705,53.0146],[-2.3861,53.0335],[-2.384,53.0413],[-2.3978,53.0475],[-2.38,53.0489],[-2.3685,53.0598],[-2.3475,53.0564],[-2.3182,53.0814],[-2.2808,53.0782],[-2.2771,53.0859],[-2.2478,53.0902],[-2.1865,53.136],[-2.2161,53.1554],[-2.2469,53.16],[-2.245,53.1729],[-2.2174,53.1692],[-2.2114,53.1798],[-2.1984,53.1762],[-2.17,53.1902],[-2.143,53.1876],[-2.114,53.169],[-2.0702,53.1717],[-2.0481,53.1912],[-1.9971,53.1885],[-1.9873,53.2137],[-1.9625,53.2262],[-1.9548,53.213],[-1.8741,53.1955],[-1.8208,53.1682],[-1.8221,53.137],[-1.784,53.1032],[-1.782,53.092],[-1.7942,53.0886],[-1.7852,53.0604],[-1.8099,53.0604],[-1.8111,53.0519],[-1.7684,53.0442],[-1.7593,53.0348],[-1.7777,53.0335],[-1.7778,53.0263],[-1.7923,53.0227],[-1.7962,53.0023],[-1.8419,52.997],[-1.8491,52.9842],[-1.868,52.985],[-1.8674,52.974],[-1.8799,52.9673],[-1.8721,52.9637],[-1.8766,52.96],[-1.8645,52.9393],[-1.9013,52.932],[-1.9048,52.9215],[-1.9474,52.8967],[-1.9521,52.8861],[-1.9309,52.8694],[-1.9094,52.872],[-1.8494,52.8526],[-1.8235,52.8299],[-1.8235,52.8131],[-1.8341,52.8046],[-1.8235,52.8045],[-1.8235,52.7942],[-1.779,52.7954],[-1.7689,52.7675],[-1.7793,52.7572],[-1.7541,52.7404],[-1.7175,52.7334],[-1.7263,52.7288],[-1.7298,52.7103],[-1.6907,52.7034],[-1.6966,52.6697],[-1.7204,52.6694],[-1.7333,52.6537],[-1.752,52.6563],[-1.7612,52.647],[-1.7577,52.638],[-1.7829,52.6381],[-1.7853,52.612],[-1.7976,52.6021],[-1.7875,52.5838],[-1.7636,52.5708],[-1.7654,52.5622],[-1.6888,52.5561],[-1.6921,52.547],[-1.6859,52.5435],[-1.6959,52.5366],[-1.63,52.5461],[-1.6035,52.5224],[-1.6128,52.509],[-1.6228,52.5082],[-1.6185,52.4921],[-1.6311,52.4922],[-1.6749,52.4147],[-1.656,52.4086],[-1.6317,52.3658],[-1.655,52.3559],[-1.6841,52.3633],[-1.6942,52.3507],[-1.6847,52.3447],[-1.6827,52.3317],[-1.7224,52.3375],[-1.7455,52.3144],[-1.8444,52.3192],[-1.8386,52.3006],[-1.8064,52.2878],[-1.8331,52.2724],[-1.6913,52.2107],[-1.6599,52.2143],[-1.6366,52.1819],[-1.618,52.1751],[-1.5997,52.1789],[-1.603,52.1718],[-1.5965,52.1688],[-1.6054,52.1601],[-1.5857,52.1604],[-1.5846,52.1527],[-1.5212,52.1549],[-1.5147,52.1355],[-1.4908,52.1292],[-1.477,52.1356],[-1.4756,52.15],[-1.4395,52.1417],[-1.4102,52.1577],[-1.3794,52.1557],[-1.3586,52.1649],[-1.3342,52.1591],[-1.3314,52.1684],[-1.2518,52.1015],[-1.3212,52.087],[-1.3182,52.0799],[-1.2975,52.0781],[-1.3129,52.0515],[-1.2941,52.0397],[-1.294,52.0274],[-1.2838,52.025],[-1.2806,52.0009],[-1.3599,51.9878],[-1.3584,51.977],[-1.3646,51.9847],[-1.4099,51.9726],[-1.438,51.988],[-1.4953,51.9762],[-1.5229,51.9967],[-1.5314,51.9851],[-1.5809,51.9729],[-1.6104,51.957],[-1.6234,51.9474],[-1.6153,51.9379],[-1.6455,51.9224],[-1.6927,51.9081],[-1.7302,51.9097],[-1.7682,51.8874],[-1.8106,51.8954],[-1.8102,51.8851],[-1.8318,51.8674],[-1.8509,51.8641],[-1.8725,51.8902],[-1.896,51.8945],[-1.9121,51.8876],[-1.9272,51.8964],[-1.918,51.902],[-1.925,51.9211],[-1.9364,51.92],[-1.9374,51.9101],[-1.9941,51.915],[-2.0005,51.9041],[-2.0097,51.9058],[-2.0187,51.8786],[-2.0016,51.8764],[-2.0015,51.8652],[-2.0254,51.8635],[-2.0334,51.8552],[-2.0231,51.8386],[-2.0265,51.8223],[-2.0186,51.8128],[-2.0249,51.8066]]]}},{"type":"Feature","properties":{"gsp":"F"},"geometry":{"type":"Polygon","coordinates":[[[-1.9723,54.1579],[-1.9931,54.1551],[-2.0045,54.1729],[-2.0458,54.1819],[-2.0595,54.1967],[-2.0609,54.2103],[-2.1,54.232],[-2.1405,54.2253],[-2.1516,54.2356],[-2.1718,54.2285],[-2.1978,54.2474],[-2.2292,54.2522],[-2.2727,54.2435],[-2.3142,54.2544],[-2.3282,54.2802],[-2.3184,54.2911],[-2.318,54.3296],[-2.3526,54.3551],[-2.2894,54.3852],[-2.3007,54.3993],[-2.303,54.4222],[-2.2821,54.4492],[-2.2317,54.4604],[-2.2019,54.4522],[-2.157,54.4724],[-2.1572,54.5114],[-2.1689,54.5273],[-2.1985,54.5393],[-2.2052,54.5532],[-2.2928,54.6028],[-2.3193,54.6352],[-2.2961,54.6501],[-2.2966,54.6601],[-2.3529,54.6869],[-2.3565,54.6975],[-2.3258,54.7266],[-2.3323,54.732],[-2.3224,54.7642],[-2.3031,54.7851],[-2.3075,54.7975],[-2.3562,54.8291],[-2.3911,54.8417],[-2.4015,54.8556],[-2.4429,54.8354],[-2.4619,54.8339],[-2.4971,54.8105],[-2.5339,54.8064],[-2.5678,54.8236],[-2.5813,54.852],[-2.6041,54.8741],[-2.5747,54.8941],[-2.5463,54.9283],[-2.5696,54.9568],[-2.5694,54.9669],[-2.5938,54.9713],[-2.5971,54.9805],[-2.5613,54.9918],[-2.5713,55.0117],[-2.5674,55.0193],[-2.4821,55.0404],[-2.5024,55.0631],[-2.4921,55.0682],[-2.5001,55.0762],[-2.4856,55.0832],[-2.5028,55.091],[-2.5529,55.0822],[-2.5924,55.1042],[-2.5989,55.1246],[-2.6514,55.1328],[-2.6773,55.1555],[-2.6819,55.1695],[-2.6746,55.1759],[-2.6906,55.1887],[-2.6655,55.2212],[-2.6315,55.2237],[-2.6307,55.2445],[-2.6115,55.2474],[-2.6424,55.2606],[-2.6267,55.2622],[-2.6092,55.2833],[-2.5734,55.2969],[-2.5573,55.3114],[-2.559,55.3179],[-2.5199,55.3232],[-2.4788,55.3557],[-2.4153,55.3592],[-2.3971,55.3491],[-2.3816,55.3508],[-2.3373,55.3669],[-2.3459,55.373],[-2.3301,55.3812],[-2.345,55.3993],[-2.3324,55.4099],[-2.31,55.4077],[-2.27,55.4302],[-2.2311,55.4297],[-2.1938,55.444],[-2.189,55.4622],[-2.1653,55.4699],[-2.2057,55.4827],[-2.2028,55.4907],[-2.2345,55.5159],[-2.2324,55.545],[-2.2435,55.5559],[-2.1966,55.6066],[-2.1579,55.5999],[-2.1591,55.5895],[-2.14,55.581],[-2.0954,55.5951],[-2.0694,55.5928],[-2.0697,55.6066],[-2.0565,55.6118],[-2.0615,55.617],[-2.0417,55.6181],[-2.037,55.6307],[-1.9868,55.6165],[-1.9306,55.6333],[-1.9,55.6278],[-1.8544,55.6381],[-1.8417,55.65],[-1.7977,55.6635],[-1.7722,55.6593],[-1.774,55.6471],[-1.7581,55.6274],[-1.7619,55.6159],[-1.74,55.6231],[-1.7008,55.6155],[-1.6721,55.6196],[-1.6317,55.6447],[-1.5991,55.6449],[-1.6491,55.6089],[-1.6583,55.5936],[-1.6379,55.5859],[-1.6311,55.5686],[-1.612,55.5541],[-1.6283,55.5394],[-1.6053,55.5237],[-1.6065,55.5011],[-1.5863,55.4924],[-1.5819,55.4408],[-1.5683,55.4336],[-1.5706,55.4075],[-1.6002,55.3838],[-1.5916,55.3599],[-1.5774,55.3456],[-1.5305,55.3364],[-1.5406,55.3121],[-1.5608,55.2932],[-1.5617,55.2786],[-1.5461,55.2476],[-1.5201,55.2313],[-1.5147,55.2129],[-1.4943,55.1971],[-1.4928,55.1844],[-1.5059,55.1781],[-1.5153,55.1587],[-1.4789,55.12],[-1.4873,55.1093],[-1.4817,55.0994],[-1.4456,55.0726],[-1.4443,55.0564],[-1.4189,55.0285],[-1.3943,55.0145],[-1.4012,55.0005],[-1.3496,54.9666],[-1.3471,54.9554],[-1.3596,54.9353],[-1.3445,54.921],[-1.3521,54.8911],[-1.3376,54.8549],[-1.314,54.8396],[-1.2958,54.7733],[-1.2357,54.7263],[-1.1702,54.7003],[-1.1656,54.6898],[-1.1898,54.6804],[-1.1744,54.6606],[-1.1522,54.6502],[-1.157,54.6399],[-1.135,54.652],[-1.1047,54.6292],[-1.0506,54.6211],[-0.9893,54.5952],[-0.931,54.5922],[-0.8861,54.5768],[-0.7713,54.5619],[-0.7385,54.5326],[-0.7089,54.5381],[-0.6735,54.5208],[-0.6596,54.5045],[-0.5651,54.4836],[-0.5155,54.4486],[-0.5228,54.4307],[-0.5176,54.4207],[-0.4693,54.4022],[-0.4506,54.3843],[-0.4121,54.3352],[-0.4005,54.2983],[-0.3763,54.2904],[-0.3877,54.278],[-0.3832,54.2716],[-0.3566,54.2493],[-0.2587,54.219],[-0.2847,54.2036],[-0.3186,54.2166],[-0.3549,54.2105],[-0.4118,54.2174],[-0.5577,54.1946],[-0.5552,54.1626],[-0.5746,54.152],[-0.5668,54.1509],[-0.5683,54.1404],[-0.5894,54.1383],[-0.5821,54.1329],[-0.5948,54.1283],[-0.5828,54.1131],[-0.5831,54.0955],[-0.6034,54.0949],[-0.6051,54.0782],[-0.6134,54.0713],[-0.6595,54.0635],[-0.6445,54.0552],[-0.6595,54.0372],[-0.7215,54.0499],[-0.7571,54.0452],[-0.7618,54.053],[-0.7767,54.054],[-0.7888,54.0506],[-0.7835,54.0416],[-0.7997,54.0241],[-0.8235,54.0208],[-0.8473,54.026],[-0.8376,54.0294],[-0.8392,54.0367],[-0.877,54.0406],[-0.8885,54.0253],[-0.8771,54.0148],[-0.8918,54.0017],[-0.8707,53.9986],[-0.8735,53.9879],[-0.9104,53.9785],[-0.9268,53.9844],[-0.933,53.9708],[-0.9212,53.9613],[-0.9328,53.923],[-0.9217,53.923],[-0.9455,53.8959],[-0.9235,53.8907],[-0.9249,53.8817],[-0.9361,53.8804],[-0.9444,53.8891],[-0.9927,53.8769],[-0.9955,53.8618],[-1.0309,53.8488],[-1.0388,53.8389],[-1.0629,53.8531],[-1.1193,53.8535],[-1.1273,53.8645],[-1.1051,53.8756],[-1.196,53.9219],[-1.2203,53.9635],[-1.2216,53.9815],[-1.2417,53.9782],[-1.2421,53.991],[-1.2518,53.9937],[-1.2731,53.9951],[-1.2749,53.9817],[-1.2943,53.9883],[-1.2997,53.9868],[-1.2957,53.9806],[-1.306,53.9842],[-1.3207,53.9795],[-1.3173,53.9742],[-1.354,53.9668],[-1.4047,53.9765],[-1.4117,53.9805],[-1.408,53.9852],[-1.4264,53.9809],[-1.4284,53.9729],[-1.4491,53.9748],[-1.5483,53.9533],[-1.6532,53.9698],[-1.6697,53.987],[-1.6568,53.9922],[-1.6904,54.0059],[-1.7489,54.0096],[-1.8228,53.9974],[-1.8357,54.0142],[-1.848,54.0137],[-1.8545,54.0297],[-1.8735,54.0358],[-1.874,54.0464],[-1.8537,54.0533],[-1.8406,54.0706],[-1.8614,54.0809],[-1.8707,54.0995],[-1.891,54.1044],[-1.9051,54.1226],[-1.9475,54.1253],[-1.9575,54.1356],[-1.9538,54.1427],[-1.9723,54.1579]]]}},{"type":"Feature","properties":{"gsp":"G"},"geometry":{"type":"Polygon","coordinates":[[[-2.2777,53.3683],[-2.309,53.3867],[-2.3104,53.3663],[-2.3215,53.3615],[-2.3382,53.3677],[-2.3683,53.3646],[-2.4214,53.3876],[-2.4207,53.4048],[-2.4481,53.413],[-2.4887,53.393],[-2.5069,53.4051],[-2.5024,53.4161],[-2.5294,53.4119],[-2.5426,53.4187],[-2.5338,53.4421],[-2.5391,53.4521],[-2.6266,53.4351],[-2.6314,53.4423],[-2.6977,53.4604],[-2.7294,53.4945],[-2.7157,53.4991],[-2.7204,53.5106],[-2.7685,53.5135],[-2.7821,53.5311],[-2.8226,53.5053],[-2.8207,53.4939],[-2.8887,53.5236],[-2.8891,53.5333],[-2.874,53.5436],[-2.8972,53.5752],[-2.9318,53.5767],[-2.9416,53.5583],[-2.979,53.5806],[-3.0312,53.5859],[-3.0328,53.5939],[-2.9975,53.6267],[-2.9798,53.6223],[-2.9396,53.6577],[-2.9463,53.6677],[-2.9425,53.6757],[-2.9527,53.6821],[-2.9468,53.688],[-2.9617,53.7025],[-2.9503,53.7241],[-2.9329,53.729],[-3.0226,53.7366],[-3.0618,53.7616],[-3.0701,53.8188],[-3.0549,53.875],[-3.0573,53.9211],[-2.9279,53.9546],[-2.8889,53.9482],[-2.8907,53.9617],[-2.8748,53.966],[-2.8829,53.9789],[-2.8785,53.986],[-2.9036,53.9929],[-2.9308,54.034],[-2.8836,54.0778],[-2.8263,54.0925],[-2.8137,54.118],[-2.8346,54.1277],[-2.8678,54.1594],[-2.877,54.1772],[-2.871,54.1945],[-2.9025,54.1864],[-2.9253,54.1483],[-2.9692,54.1414],[-3.0032,54.1513],[-3.0096,54.1712],[-3.0412,54.1948],[-3.0546,54.1609],[-3.0978,54.1173],[-3.156,54.0813],[-3.1421,54.0698],[-3.1446,54.0611],[-3.1799,54.0704],[-3.1954,54.0972],[-3.2298,54.0911],[-3.2466,54.105],[-3.2481,54.1471],[-3.2681,54.1682],[-3.2244,54.1792],[-3.2289,54.1883],[-3.2051,54.2252],[-3.2087,54.2376],[-3.2172,54.2417],[-3.2449,54.2152],[-3.2315,54.2031],[-3.249,54.188],[-3.3297,54.1894],[-3.4258,54.2809],[-3.4295,54.2936],[-3.4227,54.3074],[-3.432,54.3377],[-3.5992,54.4792],[-3.6228,54.4877],[-3.643,54.506],[-3.6451,54.5194],[-3.6144,54.533],[-3.5921,54.5676],[-3.5774,54.6143],[-3.582,54.6512],[-3.5295,54.6935],[-3.515,54.72],[-3.4431,54.7624],[-3.4467,54.8009],[-3.4057,54.8708],[-3.3474,54.903],[-3.2987,54.8888],[-3.2676,54.8984],[-3.3212,54.9146],[-3.3163,54.9253],[-3.2838,54.9458],[-3.2083,54.9597],[-3.1352,54.9342],[-3.1108,54.9329],[-3.0751,54.9439],[-3.0977,54.9454],[-3.1054,54.9541],[-3.0416,54.9996],[-3.0489,55.01],[-3.0251,55.0367],[-3.0525,55.0481],[-3.0496,55.056],[-2.9404,55.06],[-2.9399,55.0699],[-2.8978,55.078],[-2.8719,55.1065],[-2.8279,55.1245],[-2.8328,55.1326],[-2.8253,55.1399],[-2.7914,55.1406],[-2.7329,55.1682],[-2.7043,55.1733],[-2.6906,55.1887],[-2.6746,55.1759],[-2.6819,55.1695],[-2.6773,55.1555],[-2.6514,55.1328],[-2.5989,55.1246],[-2.5924,55.1042],[-2.5529,55.0822],[-2.5028,55.091],[-2.4856,55.0832],[-2.5001,55.0762],[-2.4921,55.0682],[-2.5024,55.0631],[-2.4821,55.0404],[-2.5674,55.0193],[-2.5713,55.0117],[-2.5613,54.9918],[-2.5971,54.9805],[-2.5938,54.9713],[-2.5694,54.9669],[-2.5696,54.9568],[-2.5463,54.9283],[-2.5747,54.8941],[-2.5976,54.8824],[-2.6026,54.8677],[-2.5813,54.852],[-2.5678,54.8236],[-2.5339,54.8064],[-2.4971,54.8105],[-2.4619,54.8339],[-2.4429,54.8354],[-2.4015,54.8556],[-2.3911,54.8417],[-2.3562,54.8291],[-2.3075,54.7975],[-2.3031,54.7851],[-2.3224,54.7642],[-2.3323,54.732],[-2.3258,54.7266],[-2.3565,54.6975],[-2.3529,54.6869],[-2.2966,54.6601],[-2.2961,54.6501],[-2.3193,54.6352],[-2.2928,54.6028],[-2.2052,54.5532],[-2.1985,54.5393],[-2.1689,54.5273],[-2.1572,54.5114],[-2.157,54.4724],[-2.2019,54.4522],[-2.2317,54.4604],[-2.2821,54.4492],[-2.303,54.4222],[-2.3007,54.3993],[-2.2894,54.3852],[-2.3526,54.3551],[-2.318,54.3296],[-2.3184,54.2911],[-2.3282,54.2802],[-2.3142,54.2544],[-2.2547,54.2425],[-2.2549,54.2296],[-2.2893,54.2046],[-2.2557,54.1901],[-2.1927,54.1337],[-2.1201,54.109],[-2.1035,54.0863],[-2.1189,54.0616],[-2.1562,54.0362],[-2.1439,54.0231],[-2.1428,54.0083],[-2.173,54.014],[-2.1944,54.0075],[-2.1933,53.9641],[-2.1844,53.9523],[-2.2417,53.9305],[-2.2197,53.8943],[-2.2345,53.8859],[-2.2282,53.8757],[-2.2037,53.8762],[-2.1741,53.8905],[-2.1231,53.8846],[-2.097,53.8911],[-2.0781,53.8769],[-2.0843,53.8704],[-2.0425,53.8486],[-2.0457,53.829],[-2.1242,53.7994],[-2.1339,53.78],[-2.1311,53.7539],[-2.1454,53.7359],[-2.1695,53.7274],[-2.1619,53.7038],[-2.1705,53.7009],[-2.1454,53.6952],[-2.1433,53.6812],[-2.1249,53.6836],[-2.1191,53.6731],[-2.0825,53.6726],[-2.0508,53.6837],[-2.0504,53.6693],[-2.0341,53.6616],[-2.0399,53.6442],[-2.0291,53.6368],[-2.0251,53.6195],[-1.994,53.6075],[-1.9416,53.5619],[-1.8691,53.5399],[-1.837,53.5208],[-1.8206,53.5217],[-1.8169,53.5127],[-1.7789,53.4975],[-1.7812,53.4854],[-1.8098,53.4809],[-1.8129,53.4687],[-1.859,53.4591],[-1.8503,53.4473],[-1.8654,53.4367],[-1.864,53.4268],[-1.9063,53.4112],[-1.8583,53.3878],[-1.8793,53.3737],[-1.8482,53.3437],[-1.818,53.3469],[-1.8012,53.3186],[-1.8097,53.3124],[-1.7688,53.3123],[-1.7689,53.2988],[-1.8246,53.2988],[-1.7902,53.2564],[-1.8705,53.2465],[-1.894,53.2518],[-1.8978,53.2422],[-1.9295,53.2329],[-1.9781,53.2324],[-1.9752,53.228],[-1.9902,53.2231],[-1.9872,53.2119],[-2.0001,53.1946],[-1.9971,53.1885],[-2.0481,53.1912],[-2.0702,53.1717],[-2.1087,53.1684],[-2.143,53.1876],[-2.17,53.1902],[-2.2031,53.1765],[-2.2246,53.1997],[-2.257,53.2049],[-2.3051,53.229],[-2.2974,53.2748],[-2.2708,53.281],[-2.3102,53.3002],[-2.3013,53.3071],[-2.2864,53.3033],[-2.2658,53.3179],[-2.2676,53.3299],[-2.2838,53.3397],[-2.2814,53.3551],[-2.2891,53.3632],[-2.2777,53.3683]]]}},{"type":"Feature","properties":{"gsp":"H"},"geometry":{"type":"Polygon","coordinates":[[[-2.2416,50.6119],[-2.42,50.6306],[-2.4379,50.6191],[-2.4327,50.6035],[-2.4049,50.5858],[-2.4061,50.5477],[-2.435,50.5181],[-2.4569,50.5089],[-2.4644,50.5185],[-2.4555,50.5564],[-2.4781,50.5759],[-2.5764,50.6315],[-2.6989,50.6832],[-2.6909,50.6902],[-2.6902,50.7066],[-2.6743,50.7075],[-2.6782,50.751],[-2.66,50.754],[-2.642,50.746],[-2.6545,50.775],[-2.6474,50.7803],[-2.681,50.8065],[-2.7004,50.8111],[-2.6873,50.8286],[-2.7081,50.8268],[-2.7126,50.8423],[-2.7444,50.8408],[-2.744,50.8521],[-2.7149,50.8593],[-2.7144,50.8711],[-2.6606,50.8871],[-2.628,50.8863],[-2.6241,50.8793],[-2.6094,50.8909],[-2.6238,50.9072],[-2.6199,50.9116],[-2.6445,50.9198],[-2.6421,50.9287],[-2.6657,50.93],[-2.6686,50.9614],[-2.6934,50.9644],[-2.6965,50.979],[-2.7169,50.9814],[-2.6986,50.9922],[-2.7095,50.9964],[-2.7045,51.0054],[-2.7164,51.0094],[-2.6945,51.0039],[-2.6955,51.0108],[-2.6539,51.0343],[-2.6248,51.0424],[-2.6035,51.0368],[-2.6085,51.0405],[-2.5915,51.0473],[-2.5796,51.0688],[-2.598,51.0703],[-2.6013,51.0846],[-2.586,51.0845],[-2.6012,51.089],[-2.5981,51.0984],[-2.5792,51.0888],[-2.5004,51.1073],[-2.492,51.1126],[-2.5109,51.1275],[-2.477,51.141],[-2.4795,51.1556],[-2.4489,51.1719],[-2.4526,51.1787],[-2.438,51.1866],[-2.4521,51.1861],[-2.4093,51.2103],[-2.424,51.2192],[-2.3692,51.2347],[-2.3758,51.2539],[-2.4019,51.2647],[-2.4165,51.287],[-2.3853,51.2866],[-2.3794,51.3022],[-2.3418,51.3093],[-2.3589,51.3225],[-2.333,51.342],[-2.3315,51.3524],[-2.2903,51.3726],[-2.2968,51.3949],[-2.2818,51.3972],[-2.2909,51.4057],[-2.2785,51.4159],[-2.2954,51.4263],[-2.2852,51.4578],[-2.2957,51.4586],[-2.2888,51.478],[-2.2914,51.4874],[-2.3039,51.486],[-2.304,51.5042],[-2.2525,51.527],[-2.2664,51.536],[-2.2616,51.5438],[-2.2676,51.5629],[-2.2605,51.57],[-2.2758,51.5733],[-2.2675,51.5826],[-2.2452,51.5814],[-2.2224,51.6221],[-2.255,51.6304],[-2.2516,51.6352],[-2.1868,51.6361],[-2.1796,51.6459],[-2.1826,51.6616],[-2.173,51.6657],[-2.0806,51.6535],[-2.0572,51.6723],[-2.0421,51.6628],[-1.9881,51.6691],[-1.9868,51.6906],[-2.0045,51.699],[-1.9999,51.7117],[-2.0533,51.7161],[-2.0558,51.7338],[-2.0304,51.7479],[-2.0184,51.7459],[-2.0171,51.7564],[-1.9984,51.7659],[-2.0266,51.7948],[-2.0186,51.8128],[-2.0265,51.8223],[-2.0258,51.8484],[-2.0335,51.8546],[-2.0254,51.8635],[-2.0015,51.8652],[-2.0016,51.8764],[-2.0187,51.8786],[-2.0097,51.9058],[-2.0005,51.9041],[-1.9941,51.915],[-1.9374,51.9101],[-1.9364,51.92],[-1.925,51.9211],[-1.918,51.902],[-1.9272,51.8964],[-1.9121,51.8876],[-1.896,51.8945],[-1.8725,51.8902],[-1.8509,51.8641],[-1.8318,51.8674],[-1.8102,51.8851],[-1.8106,51.8954],[-1.7682,51.8874],[-1.7302,51.9097],[-1.6927,51.9081],[-1.6455,51.9224],[-1.6153,51.9379],[-1.6234,51.9474],[-1.6104,51.957],[-1.5809,51.9729],[-1.5314,51.9851],[-1.5229,51.9967],[-1.4953,51.9762],[-1.438,51.988],[-1.4099,51.9726],[-1.3646,51.9847],[-1.3584,51.977],[-1.3599,51.9878],[-1.2964,52.0015],[-1.2833,51.9996],[-1.2888,51.9897],[-1.2827,51.9793],[-1.2306,51.9949],[-1.2185,51.9803],[-1.1973,51.9773],[-1.1341,51.9981],[-1.1199,52.0156],[-1.0957,52.0149],[-1.0883,52.0058],[-1.0607,52.0086],[-1.053,52.0023],[-1.0952,51.9571],[-1.0787,51.9434],[-1.0545,51.948],[-1.0621,51.9353],[-1.0776,51.9318],[-1.0706,51.9274],[-1.0865,51.9227],[-1.0793,51.9172],[-1.0935,51.8939],[-1.0581,51.8855],[-1.057,51.8757],[-1.0692,51.8747],[-1.0598,51.8432],[-1.0724,51.8431],[-1.0726,51.834],[-1.0923,51.8345],[-1.1216,51.8454],[-1.1407,51.8347],[-1.11,51.8173],[-1.1249,51.8075],[-1.1174,51.7992],[-1.122,51.787],[-1.0807,51.7728],[-1.0808,51.7566],[-1.0314,51.7435],[-1.0203,51.7339],[-1.0272,51.7206],[-1.0065,51.7224],[-0.9824,51.7134],[-0.9653,51.7218],[-0.9603,51.7347],[-0.9506,51.7335],[-0.9067,51.6837],[-0.9102,51.6763],[-0.8955,51.6724],[-0.8773,51.6812],[-0.8332,51.6571],[-0.8035,51.6568],[-0.79,51.6697],[-0.7905,51.6818],[-0.7732,51.6946],[-0.7534,51.6893],[-0.7424,51.6942],[-0.7311,51.6756],[-0.692,51.655],[-0.6717,51.6547],[-0.6719,51.6463],[-0.6572,51.6461],[-0.6576,51.6357],[-0.6222,51.6289],[-0.6088,51.6286],[-0.5998,51.6358],[-0.5993,51.65],[-0.5849,51.6499],[-0.5578,51.6675],[-0.5218,51.6545],[-0.5392,51.638],[-0.5197,51.6011],[-0.4967,51.6014],[-0.4964,51.6318],[-0.4507,51.6098],[-0.448,51.5966],[-0.4569,51.5933],[-0.438,51.5699],[-0.4428,51.5653],[-0.4344,51.5603],[-0.4367,51.5477],[-0.3953,51.5425],[-0.3987,51.5479],[-0.3475,51.5596],[-0.308,51.5462],[-0.3074,51.5331],[-0.2804,51.5283],[-0.2508,51.5341],[-0.2434,51.5268],[-0.2505,51.5195],[-0.2456,51.5046],[-0.2546,51.5039],[-0.2442,51.4884],[-0.2553,51.4729],[-0.2941,51.4863],[-0.3212,51.4692],[-0.3172,51.4588],[-0.3742,51.4568],[-0.3867,51.4482],[-0.3673,51.4417],[-0.3879,51.4286],[-0.382,51.4079],[-0.4096,51.404],[-0.4206,51.3917],[-0.463,51.4075],[-0.4628,51.4235],[-0.4893,51.4275],[-0.5117,51.3987],[-0.5397,51.4027],[-0.5645,51.3848],[-0.5925,51.3771],[-0.5734,51.3702],[-0.5695,51.3602],[-0.5549,51.3614],[-0.5479,51.3475],[-0.5759,51.3359],[-0.613,51.3403],[-0.6173,51.334],[-0.6398,51.3344],[-0.651,51.3151],[-0.6868,51.3135],[-0.6998,51.2974],[-0.691,51.2764],[-0.6663,51.268],[-0.6311,51.2777],[-0.633,51.2685],[-0.6587,51.2565],[-0.6389,51.2383],[-0.6417,51.2299],[-0.585,51.1988],[-0.5938,51.1915],[-0.5749,51.1838],[-0.5826,51.174],[-0.5715,51.1559],[-0.581,51.1502],[-0.5756,51.1436],[-0.593,51.0928],[-0.5389,51.0831],[-0.5352,51.0939],[-0.5042,51.0888],[-0.3937,51.1086],[-0.402,51.0943],[-0.3656,51.0861],[-0.3725,51.0832],[-0.3681,51.0746],[-0.3758,51.0735],[-0.3662,51.0447],[-0.381,51.0228],[-0.4017,51.0204],[-0.408,51.0011],[-0.426,51.0062],[-0.443,50.9881],[-0.5062,50.9968],[-0.507,50.9906],[-0.5235,50.9885],[-0.5336,50.9494],[-0.5436,50.9475],[-0.5464,50.954],[-0.567,50.9429],[-0.565,50.9324],[-0.5348,50.9137],[-0.5505,50.9123],[-0.554,50.9041],[-0.542,50.8905],[-0.5583,50.8895],[-0.5552,50.8825],[-0.5235,50.8831],[-0.4994,50.8995],[-0.4918,50.8853],[-0.4854,50.8977],[-0.4741,50.8939],[-0.48,50.8764],[-0.4971,50.8637],[-0.498,50.8465],[-0.5089,50.8396],[-0.5003,50.8364],[-0.5097,50.8289],[-0.5765,50.8277],[-0.572,50.8162],[-0.5629,50.8185],[-0.5378,50.7974],[-0.722,50.7678],[-0.7886,50.718],[-0.8421,50.7474],[-0.9014,50.7682],[-1.0221,50.7812],[-1.1429,50.7697],[-1.1918,50.7858],[-1.2224,50.8072],[-1.2941,50.8298],[-1.3022,50.8125],[-1.3282,50.7912],[-1.3105,50.7746],[-1.2667,50.7691],[-1.2334,50.7486],[-1.1984,50.7384],[-1.1541,50.7442],[-1.1444,50.7344],[-1.1033,50.7251],[-1.0894,50.7011],[-1.0617,50.6859],[-1.0933,50.6622],[-1.1263,50.6592],[-1.153,50.6471],[-1.1757,50.5964],[-1.2956,50.5705],[-1.3905,50.6224],[-1.4511,50.6406],[-1.4869,50.6623],[-1.5874,50.6594],[-1.5889,50.6657],[-1.5535,50.683],[-1.564,50.7015],[-1.5903,50.7156],[-1.6825,50.7315],[-1.7211,50.7293],[-1.7483,50.7079],[-1.8289,50.7158],[-1.9077,50.7001],[-1.9363,50.6793],[-1.943,50.6514],[-1.9172,50.6405],[-1.9463,50.6201],[-1.9377,50.6069],[-1.9458,50.592],[-2.017,50.5846],[-2.0493,50.5721],[-2.0772,50.5894],[-2.1963,50.6173],[-2.2416,50.6119]]]}},{"type":"Feature","properties":{"gsp":"J"},"geometry":{"type":"Polygon","coordinates":[[[-0.0635,50.7998],[-0.2316,50.8243],[-0.4448,50.7984],[-0.5378,50.7974],[-0.5629,50.8185],[-0.572,50.8162],[-0.5746,50.829],[-0.5152,50.8262],[-0.5016,50.8345],[-0.5072,50.8444],[-0.498,50.8465],[-0.4971,50.8637],[-0.4742,50.89],[-0.4816,50.8992],[-0.4918,50.8853],[-0.4994,50.8995],[-0.5235,50.8831],[-0.5556,50.8827],[-0.5583,50.8895],[-0.542,50.8905],[-0.554,50.9041],[-0.5497,50.9135],[-0.5348,50.9137],[-0.5672,50.935],[-0.563,50.9488],[-0.5336,50.9494],[-0.5235,50.9885],[-0.507,50.9906],[-0.5062,50.9968],[-0.443,50.9881],[-0.426,51.0062],[-0.408,51.0011],[-0.4017,51.0204],[-0.381,51.0228],[-0.3662,51.0447],[-0.3758,51.0735],[-0.3681,51.0746],[-0.3725,51.0832],[-0.3654,51.0853],[-0.402,51.0943],[-0.3937,51.1086],[-0.5042,51.0888],[-0.5352,51.0939],[-0.5389,51.0831],[-0.593,51.0928],[-0.5756,51.1436],[-0.581,51.1502],[-0.5715,51.1559],[-0.5826,51.174],[-0.5749,51.1838],[-0.5938,51.1915],[-0.585,51.1988],[-0.6417,51.2299],[-0.6389,51.2383],[-0.6587,51.2565],[-0.633,51.2685],[-0.6311,51.2777],[-0.6652,51.2679],[-0.691,51.2764],[-0.7002,51.2928],[-0.6888,51.312],[-0.651,51.3151],[-0.6398,51.3344],[-0.6173,51.334],[-0.613,51.3403],[-0.5759,51.3359],[-0.5479,51.3475],[-0.5549,51.3614],[-0.5695,51.3602],[-0.5734,51.3702],[-0.5925,51.3771],[-0.5645,51.3848],[-0.5397,51.4027],[-0.5117,51.3987],[-0.4893,51.4275],[-0.4628,51.4235],[-0.463,51.4075],[-0.4206,51.3917],[-0.4096,51.404],[-0.382,51.4079],[-0.3879,51.4286],[-0.3673,51.4417],[-0.3867,51.4482],[-0.3742,51.4568],[-0.3172,51.4588],[-0.319,51.4717],[-0.2912,51.4868],[-0.275,51.4791],[-0.2815,51.478],[-0.2766,51.4694],[-0.2906,51.4471],[-0.2531,51.4443],[-0.2768,51.4248],[-0.2894,51.4263],[-0.2781,51.4191],[-0.2896,51.4014],[-0.2764,51.3992],[-0.2582,51.3789],[-0.2337,51.3882],[-0.2181,51.3802],[-0.2098,51.3883],[-0.1884,51.3854],[-0.1748,51.3935],[-0.1408,51.3876],[-0.1242,51.3977],[-0.1324,51.4084],[-0.1197,51.4188],[-0.0946,51.4228],[-0.0785,51.4198],[-0.0593,51.3973],[-0.0269,51.3817],[0.0168,51.3955],[0.0312,51.3672],[0.0475,51.3679],[0.0663,51.3989],[0.0846,51.408],[0.0819,51.413],[0.12,51.4136],[0.1228,51.4323],[0.1537,51.4353],[0.149,51.4123],[0.1598,51.4082],[0.1618,51.4212],[0.1874,51.4329],[0.2528,51.4365],[0.2366,51.4484],[0.242,51.4706],[0.2775,51.4574],[0.3132,51.4697],[0.3484,51.4478],[0.3952,51.4463],[0.4469,51.4574],[0.4603,51.4831],[0.4856,51.4913],[0.6898,51.4784],[0.7651,51.4459],[0.8241,51.4304],[0.9002,51.4224],[0.9435,51.3921],[0.9563,51.365],[0.973,51.3507],[1.0011,51.3535],[1.0238,51.3687],[1.087,51.3735],[1.1152,51.3857],[1.1531,51.3778],[1.2549,51.3814],[1.4258,51.3976],[1.4545,51.3786],[1.4516,51.3576],[1.4274,51.3196],[1.3701,51.3186],[1.4148,51.2242],[1.4096,51.1708],[1.3858,51.1415],[1.3311,51.1069],[1.2272,51.0951],[1.2101,51.0895],[1.1971,51.0721],[1.1007,51.0642],[1.0429,51.0467],[1.0008,51.0214],[0.982,50.9975],[0.9706,50.9697],[0.9867,50.9195],[0.9796,50.9091],[0.9349,50.9082],[0.7816,50.9296],[0.6631,50.8665],[0.3678,50.813],[0.3347,50.7829],[0.3072,50.7715],[0.2638,50.736],[0.2443,50.7314],[0.1221,50.7539],[0.0711,50.7765],[0.0556,50.7721],[-0.0635,50.7998]]]}},{"type":"Feature","properties":{"gsp":"K"},"geometry":{"type":"MultiPolygon","coordinates":[[[[-3.1122,51.4866],[-3.1556,51.4454],[-3.1629,51.4049],[-3.1909,51.3918],[-3.4007,51.378],[-3.5605,51.3972],[-3.6,51.4349],[-3.6457,51.4588],[-3.6541,51.473],[-3.6999,51.4677],[-3.7218,51.4758],[-3.7548,51.5015],[-3.7863,51.562],[-3.8208,51.5708],[-3.8245,51.5786],[-3.8174,51.5868],[-3.8612,51.6146],[-3.9214,51.6017],[-3.9404,51.6081],[-3.9767,51.6001],[-3.9913,51.5818],[-3.9645,51.5695],[-3.9692,51.5617],[-4.0352,51.5623],[-4.0627,51.5532],[-4.1328,51.5645],[-4.1484,51.5582],[-4.1381,51.5444],[-4.1502,51.537],[-4.1929,51.5431],[-4.2102,51.5323],[-4.2853,51.5562],[-4.3366,51.5605],[-4.3391,51.5679],[-4.2978,51.584],[-4.3198,51.6118],[-4.2652,51.6316],[-4.2488,51.6517],[-4.1823,51.6308],[-4.1184,51.6542],[-4.1556,51.6509],[-4.1876,51.675],[-4.2072,51.6791],[-4.2797,51.6651],[-4.3243,51.6716],[-4.3882,51.722],[-4.3867,51.7325],[-4.3708,51.7348],[-4.3817,51.7455],[-4.3794,51.7647],[-4.4024,51.7522],[-4.4317,51.7576],[-4.4129,51.7416],[-4.4487,51.7276],[-4.5536,51.7358],[-4.6758,51.7216],[-4.6879,51.7093],[-4.6748,51.6955],[-4.6912,51.6795],[-4.688,51.6689],[-4.7052,51.6577],[-4.67,51.6408],[-4.6798,51.6264],[-4.7293,51.6377],[-4.7847,51.631],[-4.8513,51.6416],[-4.8892,51.6252],[-4.892,51.607],[-4.9113,51.6038],[-4.9226,51.5929],[-4.9491,51.5933],[-5.0649,51.6163],[-5.0703,51.6261],[-5.0591,51.6408],[-5.0697,51.6578],[-5.1252,51.6665],[-5.1588,51.6813],[-5.1806,51.6755],[-5.2009,51.7056],[-5.2316,51.7109],[-5.2727,51.6899],[-5.2964,51.6914],[-5.2874,51.7032],[-5.2454,51.7204],[-5.2642,51.7278],[-5.3142,51.7286],[-5.3201,51.7375],[-5.3083,51.7495],[-5.2156,51.7391],[-5.2096,51.7567],[-5.1806,51.778],[-5.1228,51.7738],[-5.1157,51.779],[-5.1135,51.8103],[-5.1376,51.8555],[-5.2038,51.8536],[-5.2314,51.8672],[-5.3412,51.8422],[-5.3838,51.8703],[-5.4061,51.8489],[-5.4198,51.8536],[-5.4024,51.876],[-5.4033,51.8992],[-5.393,51.906],[-5.3811,51.9044],[-5.379,51.8837],[-5.3486,51.8806],[-5.3143,51.9097],[-5.2636,51.9193],[-5.2,51.9528],[-5.1655,51.9528],[-5.1439,51.9683],[-5.0943,51.9736],[-5.1033,51.9939],[-5.1002,52.0136],[-5.0809,52.0342],[-4.9884,52.0288],[-4.9638,52.0152],[-4.975,52.0077],[-4.9673,52.0053],[-4.9278,52.0164],[-4.9131,52.0383],[-4.8813,52.025],[-4.85,52.027],[-4.8551,52.0394],[-4.8446,52.0514],[-4.7957,52.0628],[-4.7323,52.1222],[-4.6893,52.1372],[-4.5693,52.1481],[-4.52,52.14],[-4.4791,52.1635],[-4.4714,52.1759],[-4.4291,52.1861],[-4.3801,52.2186],[-4.3256,52.2184],[-4.2377,52.2561],[-4.1747,52.3002],[-4.1309,52.2896],[-4.1136,52.274],[-4.0759,52.2626],[-4.0333,52.2904],[-4.0189,52.3201],[-3.9868,52.3263],[-3.9602,52.3129],[-3.9621,52.3017],[-3.9462,52.2981],[-3.9443,52.3093],[-3.9168,52.3281],[-3.8547,52.3325],[-3.8526,52.3383],[-3.7244,52.3663],[-3.7123,52.3616],[-3.6779,52.3684],[-3.6664,52.3555],[-3.6569,52.3557],[-3.6354,52.37],[-3.586,52.3581],[-3.5936,52.3715],[-3.5739,52.3718],[-3.5549,52.3923],[-3.5142,52.4118],[-3.4767,52.3914],[-3.4368,52.4035],[-3.4116,52.4303],[-3.3967,52.432],[-3.4032,52.4377],[-3.3639,52.4444],[-3.3462,52.4359],[-3.3327,52.4406],[-3.2931,52.4223],[-3.255,52.3823],[-3.2283,52.382],[-3.2097,52.3654],[-3.1617,52.3662],[-3.1552,52.3523],[-3.1039,52.3454],[-3.0958,52.3377],[-3.1036,52.3359],[-3.0992,52.3304],[-3.1072,52.3257],[-3.0997,52.3166],[-3.1112,52.305],[-3.0767,52.2985],[-3.067,52.2844],[-3.0463,52.2802],[-3.0417,52.2665],[-3.0267,52.2614],[-3.0465,52.2522],[-3.0498,52.245],[-3.0431,52.2428],[-3.0546,52.242],[-3.0533,52.2336],[-3.072,52.2286],[-3.0778,52.2166],[-3.0722,52.213],[-3.1022,52.2026],[-3.0835,52.1678],[-3.0832,52.1514],[-3.136,52.1379],[-3.1313,52.125],[-3.1049,52.1168],[-3.1055,52.1054],[-3.1227,52.1028],[-3.1131,52.0811],[-3.0733,52.0756],[-3.0662,52.0662],[-3.066,52.0497],[-3.0863,52.0411],[-3.0993,52.0226],[-3.0678,51.9835],[-3.0259,51.9572],[-3.0092,51.9392],[-3.0078,51.9269],[-2.9769,51.9277],[-2.9718,51.9049],[-2.8781,51.9338],[-2.845,51.922],[-2.8619,51.9139],[-2.842,51.9177],[-2.8365,51.9062],[-2.7685,51.8806],[-2.7791,51.8668],[-2.7566,51.8459],[-2.733,51.8392],[-2.7196,51.8489],[-2.7126,51.8396],[-2.6975,51.8449],[-2.6931,51.8366],[-2.6587,51.8331],[-2.6499,51.8246],[-2.6608,51.8227],[-2.6596,51.8107],[-2.6785,51.803],[-2.6717,51.7952],[-2.6806,51.7696],[-2.6627,51.7537],[-2.6726,51.7364],[-2.6877,51.7295],[-2.6695,51.7022],[-2.6531,51.7096],[-2.6323,51.7037],[-2.6307,51.6895],[-2.5867,51.6605],[-2.6169,51.6559],[-2.6458,51.6239],[-2.6376,51.611],[-2.6473,51.6005],[-2.676,51.6028],[-2.7076,51.5791],[-2.7522,51.5735],[-2.8382,51.5428],[-2.9021,51.5292],[-2.9844,51.5404],[-2.9976,51.5272],[-3.1122,51.4866]],[[-3.0348,51.5575],[-3.0401,51.5559],[-3.0331,51.5566],[-3.0348,51.5575]]],[[[-3.1164,51.3803],[-3.1205,51.3755],[-3.1224,51.3792],[-3.1164,51.3803]]]]}},{"type":"Feature","properties":{"gsp":"L"},"geometry":{"type":"MultiPolygon","coordinates":[[[[-6.3744,49.9213],[-6.3924,49.9302],[-6.3985,49.9498],[-6.3316,49.982],[-6.2855,49.9831],[-6.2367,49.9489],[-6.2778,49.9092],[-6.3299,49.8788],[-6.4529,49.8742],[-6.3864,49.8968],[-6.3744,49.9213]]],[[[-4.5788,50.3259],[-4.6797,50.3121],[-4.6946,50.3387],[-4.7514,50.3258],[-4.7576,50.318],[-4.7458,50.297],[-4.7742,50.2849],[-4.7748,50.265],[-4.7616,50.2523],[-4.7941,50.2163],[-4.8588,50.2301],[-4.9013,50.1913],[-4.9476,50.2001],[-4.9595,50.1903],[-4.9655,50.1632],[-4.9771,50.1489],[-5.0052,50.1358],[-5.0232,50.1405],[-5.0337,50.1581],[-5.0285,50.177],[-5.0373,50.197],[-5.0456,50.1972],[-5.0483,50.1875],[-5.0376,50.173],[-5.045,50.1599],[-5.0346,50.1431],[-5.0652,50.1388],[-5.0828,50.1209],[-5.0756,50.1077],[-5.0939,50.096],[-5.0705,50.0881],[-5.0696,50.0737],[-5.0542,50.0619],[-5.0513,50.052],[-5.0613,50.0346],[-5.0849,50.0264],[-5.0852,50.0146],[-5.0987,50.0012],[-5.1587,50.0012],[-5.179,49.9624],[-5.198,49.9554],[-5.2183,49.9564],[-5.2506,49.975],[-5.2725,50.0008],[-5.2727,50.0325],[-5.2856,50.042],[-5.2856,50.0549],[-5.3125,50.0749],[-5.3876,50.0977],[-5.43,50.0932],[-5.4425,50.1066],[-5.5082,50.1223],[-5.533,50.1065],[-5.5225,50.081],[-5.5452,50.0585],[-5.6427,50.0375],[-5.6727,50.0186],[-5.6826,50.0211],[-5.6997,50.0491],[-5.7514,50.0667],[-5.6977,50.0849],[-5.703,50.1038],[-5.7277,50.123],[-5.6747,50.1691],[-5.6304,50.1734],[-5.6026,50.1959],[-5.5502,50.2202],[-5.4747,50.2228],[-5.4595,50.2039],[-5.4366,50.1993],[-5.4098,50.2161],[-5.4053,50.2464],[-5.3538,50.2451],[-5.2524,50.288],[-5.2407,50.3046],[-5.2366,50.3364],[-5.1915,50.3366],[-5.1614,50.352],[-5.1551,50.3706],[-5.1627,50.3887],[-5.1525,50.3945],[-5.1513,50.4069],[-5.107,50.4179],[-5.1006,50.4292],[-5.0776,50.4219],[-5.0555,50.4375],[-5.0412,50.4853],[-5.0517,50.4979],[-5.0364,50.5127],[-5.0304,50.5332],[-5.0446,50.5468],[-5.0035,50.5738],[-4.944,50.5723],[-4.9369,50.558],[-4.9276,50.5768],[-4.9404,50.5877],[-4.9207,50.5998],[-4.7955,50.6057],[-4.7678,50.6485],[-4.7687,50.6725],[-4.6638,50.7164],[-4.6562,50.7416],[-4.5644,50.7874],[-4.5617,50.8631],[-4.5735,50.9043],[-4.5403,50.9673],[-4.5411,51.0088],[-4.5327,51.0247],[-4.4704,51.0264],[-4.4216,51.0181],[-4.3706,50.9947],[-4.3074,51.0007],[-4.263,51.0407],[-4.2406,51.0465],[-4.2292,51.0666],[-4.2164,51.0697],[-4.2276,51.0855],[-4.2288,51.1123],[-4.2684,51.1434],[-4.2593,51.1505],[-4.2234,51.1524],[-4.2185,51.1728],[-4.2373,51.189],[-4.2049,51.2039],[-4.089,51.222],[-4.044,51.2147],[-3.9569,51.2254],[-3.9261,51.2366],[-3.8876,51.2299],[-3.8466,51.2396],[-3.8124,51.2367],[-3.7843,51.2509],[-3.7642,51.2423],[-3.616,51.2226],[-3.5788,51.2356],[-3.5348,51.236],[-3.4387,51.2114],[-3.3976,51.1869],[-3.2741,51.185],[-3.1985,51.206],[-3.1305,51.2147],[-3.0652,51.2067],[-3.0396,51.2194],[-3.0217,51.2471],[-3.0268,51.2685],[-3.0159,51.3155],[-3.0399,51.3291],[-2.996,51.3307],[-2.9922,51.3454],[-3.0067,51.3601],[-2.9683,51.3743],[-2.984,51.3912],[-2.9132,51.4025],[-2.8922,51.4334],[-2.8091,51.4852],[-2.7693,51.4996],[-2.737,51.4981],[-2.6821,51.5442],[-2.6694,51.5758],[-2.6368,51.592],[-2.6361,51.5848],[-2.6145,51.5828],[-2.6074,51.5916],[-2.59,51.584],[-2.5596,51.592],[-2.5311,51.5666],[-2.5133,51.5608],[-2.5268,51.5509],[-2.5168,51.5421],[-2.5242,51.5341],[-2.5092,51.5396],[-2.4881,51.5298],[-2.4969,51.5008],[-2.4831,51.4977],[-2.456,51.508],[-2.4287,51.5028],[-2.4194,51.4931],[-2.4166,51.4788],[-2.4681,51.4815],[-2.4892,51.4747],[-2.4794,51.4597],[-2.5066,51.4453],[-2.5269,51.444],[-2.5254,51.4341],[-2.5082,51.4247],[-2.4935,51.4294],[-2.4923,51.418],[-2.4433,51.4174],[-2.4031,51.4316],[-2.3433,51.4395],[-2.3271,51.4371],[-2.3126,51.4224],[-2.2946,51.4288],[-2.2785,51.4159],[-2.2909,51.4057],[-2.2818,51.3972],[-2.2968,51.3949],[-2.294,51.3668],[-2.3307,51.3529],[-2.333,51.342],[-2.3589,51.3225],[-2.3418,51.3093],[-2.3794,51.3022],[-2.3853,51.2866],[-2.4165,51.287],[-2.4019,51.2647],[-2.3758,51.2539],[-2.3691,51.2349],[-2.424,51.2192],[-2.4093,51.2103],[-2.4521,51.1861],[-2.438,51.1866],[-2.4526,51.1787],[-2.4489,51.1719],[-2.4795,51.1556],[-2.477,51.141],[-2.4917,51.1403],[-2.5117,51.1264],[-2.492,51.1126],[-2.5792,51.0888],[-2.5981,51.0984],[-2.6012,51.089],[-2.586,51.0845],[-2.6013,51.0846],[-2.598,51.0703],[-2.5796,51.0688],[-2.5915,51.0473],[-2.6085,51.0405],[-2.6035,51.0368],[-2.6248,51.0424],[-2.6539,51.0343],[-2.6955,51.0108],[-2.6945,51.0039],[-2.7163,51.0095],[-2.7045,51.0054],[-2.7095,50.9964],[-2.6986,50.9922],[-2.7169,50.9814],[-2.6965,50.979],[-2.6934,50.9644],[-2.6686,50.9614],[-2.6657,50.93],[-2.6421,50.9287],[-2.6445,50.9198],[-2.6199,50.9116],[-2.6238,50.9072],[-2.6094,50.8909],[-2.6241,50.8793],[-2.628,50.8863],[-2.6606,50.8871],[-2.7144,50.8711],[-2.7149,50.8593],[-2.744,50.8521],[-2.7444,50.8408],[-2.7126,50.8423],[-2.7081,50.8268],[-2.6873,50.8286],[-2.7004,50.8111],[-2.681,50.8065],[-2.6474,50.7803],[-2.6545,50.775],[-2.642,50.746],[-2.66,50.754],[-2.6782,50.751],[-2.6743,50.7075],[-2.6902,50.7066],[-2.6911,50.6899],[-2.6989,50.6832],[-2.7877,50.7122],[-2.9074,50.7286],[-2.9311,50.715],[-3.0081,50.6954],[-3.0705,50.6977],[-3.0925,50.6808],[-3.1794,50.6797],[-3.2516,50.6684],[-3.2941,50.6274],[-3.3392,50.6173],[-3.3526,50.6033],[-3.4128,50.6083],[-3.4543,50.5767],[-3.5018,50.5104],[-3.5036,50.485],[-3.4735,50.4603],[-3.5108,50.4498],[-3.5332,50.452],[-3.5472,50.4392],[-3.5426,50.4096],[-3.4818,50.4044],[-3.4746,50.3973],[-3.5045,50.3707],[-3.5127,50.3427],[-3.604,50.3134],[-3.6292,50.2944],[-3.6496,50.24],[-3.6332,50.2235],[-3.6369,50.2173],[-3.677,50.2155],[-3.7185,50.1972],[-3.7672,50.2162],[-3.7843,50.2047],[-3.8152,50.2101],[-3.8732,50.2376],[-3.8649,50.2584],[-3.9529,50.3005],[-3.9865,50.3018],[-4.0438,50.2891],[-4.1136,50.3022],[-4.1255,50.3183],[-4.1504,50.3294],[-4.222,50.3074],[-4.2361,50.3328],[-4.3036,50.3555],[-4.4065,50.359],[-4.438,50.3528],[-4.4373,50.3355],[-4.4438,50.3311],[-4.5352,50.3191],[-4.5788,50.3259]]],[[[-4.6648,51.2047],[-4.643,51.1596],[-4.6755,51.1558],[-4.6853,51.1724],[-4.6827,51.2035],[-4.6648,51.2047]]]]}},{"type":"Feature","properties":{"gsp":"M"},"geometry":{"type":"Polygon","coordinates":[[[-1.4149,53.3204],[-1.4307,53.3139],[-1.4285,53.3085],[-1.4479,53.3087],[-1.4671,53.2926],[-1.4538,53.2842],[-1.5035,53.2854],[-1.5294,53.3108],[-1.5371,53.3047],[-1.5928,53.3041],[-1.6112,53.3117],[-1.6111,53.3218],[-1.6328,53.3208],[-1.6122,53.3431],[-1.5906,53.3459],[-1.6636,53.3667],[-1.6542,53.3839],[-1.6632,53.3839],[-1.6734,53.3693],[-1.6709,53.3496],[-1.6855,53.3356],[-1.7606,53.3382],[-1.8012,53.3186],[-1.818,53.3469],[-1.8482,53.3437],[-1.8793,53.3737],[-1.8583,53.3878],[-1.9063,53.4112],[-1.864,53.4268],[-1.8654,53.4367],[-1.8503,53.4473],[-1.859,53.4591],[-1.8129,53.4687],[-1.8098,53.4809],[-1.7812,53.4854],[-1.7789,53.4975],[-1.8169,53.5127],[-1.8206,53.5217],[-1.837,53.5208],[-1.8691,53.5399],[-1.9416,53.5619],[-1.994,53.6075],[-2.0251,53.6195],[-2.0291,53.6368],[-2.0399,53.6442],[-2.0341,53.6616],[-2.0504,53.6693],[-2.0508,53.6837],[-2.0825,53.6726],[-2.1191,53.6731],[-2.1249,53.6836],[-2.1433,53.6812],[-2.1454,53.6952],[-2.1705,53.7009],[-2.1619,53.7038],[-2.1695,53.7274],[-2.1454,53.7359],[-2.1311,53.7539],[-2.1339,53.78],[-2.1242,53.7994],[-2.0457,53.829],[-2.0425,53.8486],[-2.0843,53.8704],[-2.0781,53.8769],[-2.097,53.8911],[-2.1231,53.8846],[-2.1741,53.8905],[-2.2109,53.8744],[-2.2337,53.8812],[-2.2197,53.8943],[-2.2416,53.9252],[-2.2404,53.9346],[-2.1844,53.9523],[-2.1933,53.9641],[-2.1944,54.0075],[-2.173,54.014],[-2.1428,54.0083],[-2.1439,54.0231],[-2.1562,54.0362],[-2.1189,54.0616],[-2.103,54.0837],[-2.1201,54.109],[-2.1927,54.1337],[-2.2557,54.1901],[-2.2893,54.2046],[-2.2549,54.2296],[-2.2595,54.2471],[-2.1978,54.2474],[-2.1725,54.2287],[-2.1438,54.235],[-2.1405,54.2253],[-2.1,54.232],[-2.0609,54.2103],[-2.0595,54.1967],[-2.0458,54.1819],[-2.0045,54.1729],[-1.9931,54.1551],[-1.9635,54.1522],[-1.9475,54.1253],[-1.9051,54.1226],[-1.891,54.1044],[-1.8707,54.0995],[-1.8614,54.0809],[-1.8406,54.0706],[-1.8537,54.0533],[-1.874,54.0464],[-1.8735,54.0358],[-1.8545,54.0297],[-1.848,54.0137],[-1.8357,54.0142],[-1.8228,53.9974],[-1.7489,54.0096],[-1.6904,54.0059],[-1.6568,53.9922],[-1.6697,53.987],[-1.6532,53.9698],[-1.5483,53.9533],[-1.4491,53.9748],[-1.4284,53.9729],[-1.4264,53.9809],[-1.408,53.9852],[-1.4117,53.9805],[-1.4047,53.9765],[-1.354,53.9668],[-1.3173,53.9742],[-1.3207,53.9795],[-1.306,53.9842],[-1.2957,53.9806],[-1.2997,53.9868],[-1.2943,53.9883],[-1.2749,53.9817],[-1.2731,53.9951],[-1.2518,53.9937],[-1.2421,53.991],[-1.2417,53.9782],[-1.2216,53.9815],[-1.2203,53.9635],[-1.196,53.9219],[-1.1051,53.8756],[-1.1273,53.8645],[-1.1193,53.8535],[-1.0629,53.8531],[-1.0417,53.8388],[-0.9955,53.8618],[-0.9927,53.8769],[-0.9444,53.8891],[-0.9361,53.8804],[-0.9249,53.8817],[-0.9235,53.8907],[-0.9455,53.8959],[-0.9217,53.923],[-0.9328,53.923],[-0.9212,53.9613],[-0.933,53.9708],[-0.9268,53.9844],[-0.9104,53.9785],[-0.8735,53.9879],[-0.8707,53.9986],[-0.8918,54.0017],[-0.8771,54.0148],[-0.8885,54.0253],[-0.877,54.0406],[-0.8392,54.0367],[-0.8376,54.0294],[-0.8473,54.026],[-0.8235,54.0208],[-0.7997,54.0241],[-0.7835,54.0416],[-0.7888,54.0506],[-0.7767,54.054],[-0.7618,54.053],[-0.7571,54.0452],[-0.7215,54.0499],[-0.6595,54.0372],[-0.6445,54.0552],[-0.6595,54.0635],[-0.6097,54.0733],[-0.6034,54.0949],[-0.5831,54.0955],[-0.5828,54.1131],[-0.5948,54.1283],[-0.5821,54.1329],[-0.5894,54.1383],[-0.5683,54.1404],[-0.5668,54.1509],[-0.5746,54.152],[-0.5552,54.1626],[-0.5577,54.1946],[-0.4118,54.2174],[-0.3549,54.2105],[-0.3186,54.2166],[-0.2979,54.2041],[-0.2771,54.2044],[-0.2665,54.1875],[-0.2335,54.1694],[-0.0988,54.1358],[-0.0698,54.121],[-0.071,54.112],[-0.0876,54.1046],[-0.1631,54.0948],[-0.1952,54.0719],[-0.2068,54.0314],[-0.1965,53.9905],[-0.1503,53.9103],[-0.1211,53.8764],[0.1207,53.6697],[0.1526,53.6179],[0.155,53.6],[0.1091,53.5687],[0.1031,53.5768],[0.1382,53.6074],[0.0764,53.6377],[0.0334,53.6445],[-0.0532,53.6251],[-0.1033,53.6308],[-0.2315,53.7069],[-0.2456,53.7265],[-0.2821,53.7373],[-0.4407,53.7097],[-0.507,53.7089],[-0.5142,53.7054],[-0.5137,53.6921],[-0.4692,53.7027],[-0.2816,53.7162],[-0.2064,53.6479],[-0.1815,53.6344],[-0.1596,53.6333],[-0.1556,53.6236],[-0.0903,53.5867],[-0.0544,53.5851],[0.0272,53.5248],[0.0422,53.5301],[0.0885,53.5205],[0.0964,53.5135],[0.0911,53.5001],[0.1043,53.4977],[0.1012,53.5058],[0.1133,53.5096],[0.1602,53.4933],[0.2377,53.4045],[0.2512,53.3736],[0.2329,53.3693],[0.2407,53.3588],[0.2357,53.3537],[0.1973,53.3354],[0.197,53.3292],[0.1755,53.3247],[0.1562,53.302],[0.1305,53.295],[0.1535,53.2838],[0.1275,53.263],[0.1265,53.251],[0.1113,53.2517],[0.1079,53.2608],[0.0628,53.2664],[0.0659,53.2738],[0.0585,53.2764],[0.0497,53.2713],[0.0284,53.28],[0.0188,53.2776],[0.0217,53.2702],[-0.0383,53.2685],[-0.0564,53.2806],[-0.0564,53.295],[-0.0876,53.3147],[-0.1129,53.3043],[-0.1336,53.3075],[-0.1468,53.2945],[-0.1874,53.3037],[-0.2108,53.2983],[-0.2232,53.3201],[-0.2137,53.323],[-0.2449,53.34],[-0.2771,53.3405],[-0.2994,53.3254],[-0.3125,53.3321],[-0.3455,53.3229],[-0.3598,53.3411],[-0.4421,53.3397],[-0.4692,53.3475],[-0.4695,53.3409],[-0.5417,53.3327],[-0.6319,53.3314],[-0.6322,53.3225],[-0.6439,53.3181],[-0.6383,53.3102],[-0.6441,53.298],[-0.6971,53.2993],[-0.6908,53.2805],[-0.6776,53.2759],[-0.6811,53.2632],[-0.7123,53.2583],[-0.712,53.2677],[-0.7346,53.2653],[-0.7351,53.2439],[-0.771,53.2462],[-0.7784,53.252],[-0.7701,53.2531],[-0.773,53.2611],[-0.7641,53.2732],[-0.7782,53.2839],[-0.7632,53.2995],[-0.7503,53.2942],[-0.7497,53.3236],[-0.7664,53.3299],[-0.7568,53.3396],[-0.7649,53.3459],[-0.7589,53.354],[-0.7741,53.3643],[-0.791,53.3635],[-0.7752,53.3779],[-0.7904,53.3857],[-0.7765,53.3914],[-0.7884,53.415],[-0.8183,53.4271],[-0.8209,53.4405],[-0.8057,53.447],[-0.8041,53.4568],[-0.8722,53.4664],[-0.9162,53.4603],[-0.9148,53.4863],[-0.928,53.4964],[-0.9769,53.4969],[-0.9898,53.4873],[-1.0118,53.4903],[-1.0192,53.4837],[-0.9832,53.468],[-0.9958,53.4369],[-1.0124,53.4327],[-1.04,53.4096],[-1.0307,53.4016],[-1.0444,53.3774],[-1.0409,53.3683],[-1.05,53.3629],[-1.0329,53.3487],[-1.0639,53.3414],[-1.0587,53.3344],[-1.1036,53.3262],[-1.1344,53.3405],[-1.149,53.3384],[-1.1848,53.3214],[-1.2006,53.3044],[-1.236,53.3108],[-1.2438,53.3016],[-1.2914,53.3093],[-1.2956,53.3207],[-1.2885,53.3262],[-1.306,53.3337],[-1.3478,53.33],[-1.3717,53.3407],[-1.3899,53.3359],[-1.4111,53.3418],[-1.4233,53.3371],[-1.4149,53.3204]]]}},{"type":"Feature","properties":{"gsp":"N"},"geometry":{"type":"MultiPolygon","coordinates":[[[[-4.715,54.8203],[-4.7844,54.8287],[-4.8166,54.8571],[-4.8419,54.8598],[-4.9291,54.8278],[-4.9483,54.8113],[-4.896,54.7041],[-4.8592,54.6827],[-4.8722,54.6679],[-4.8695,54.644],[-4.8441,54.6357],[-4.8739,54.6287],[-4.9201,54.638],[-4.9719,54.6633],[-4.9821,54.6867],[-4.962,54.702],[-4.9706,54.7257],[-4.9978,54.7329],[-4.9984,54.7469],[-5.0132,54.7584],[-5.0099,54.7715],[-5.1468,54.8506],[-5.1663,54.8871],[-5.1923,54.9138],[-5.1948,54.9308],[-5.1874,54.9668],[-5.1925,54.9773],[-5.1692,55.0095],[-5.1001,55.0229],[-5.0854,55.0171],[-5.0502,54.9675],[-5.0643,54.9606],[-5.0544,54.928],[-5.0317,54.9152],[-5.0011,54.9167],[-4.9997,54.9275],[-5.0146,54.9542],[-5.034,54.9697],[-5.0676,55.0267],[-5.0565,55.0558],[-5.0092,55.1123],[-5.0036,55.1405],[-4.945,55.1701],[-4.9169,55.1999],[-4.8727,55.2259],[-4.8669,55.252],[-4.843,55.2842],[-4.8515,55.3251],[-4.7798,55.3633],[-4.773,55.4038],[-4.7367,55.429],[-4.6544,55.4456],[-4.6518,55.4701],[-4.6356,55.4795],[-4.6276,55.4967],[-4.6348,55.5134],[-4.6626,55.5344],[-4.6944,55.5455],[-4.6902,55.5549],[-4.664,55.5563],[-4.6687,55.5757],[-4.6887,55.5953],[-4.7628,55.6258],[-4.7923,55.6241],[-4.8462,55.6402],[-4.873,55.6814],[-4.9301,55.7023],[-4.9208,55.7257],[-4.8937,55.7483],[-4.8782,55.7757],[-4.8901,55.7991],[-4.953,55.8274],[-4.9333,55.8561],[-4.9261,55.8955],[-4.9047,55.9373],[-4.8692,55.9709],[-4.8903,56.0582],[-4.821,56.1381],[-4.7933,56.1274],[-4.7833,56.1094],[-4.7021,56.0772],[-4.6734,56.0236],[-4.6461,56.0279],[-4.6396,56.0359],[-4.6178,56.0363],[-4.6015,56.0202],[-4.5619,56.0299],[-4.5127,56.0275],[-4.4003,55.9947],[-4.3911,55.997],[-4.3899,56.0148],[-4.3752,56.0231],[-4.3486,56.0202],[-4.2811,56.0306],[-4.257,56.0172],[-4.2208,56.0198],[-4.1965,56.0089],[-4.1636,56.0303],[-4.1524,56.008],[-4.1341,56.0069],[-4.0987,56.0225],[-4.1127,56.0257],[-4.1102,56.0331],[-4.1262,56.0359],[-4.1325,56.0452],[-4.1175,56.0587],[-4.129,56.0682],[-4.1038,56.0986],[-4.0589,56.1122],[-4.0376,56.1306],[-3.9862,56.1215],[-3.9757,56.1335],[-3.9819,56.1428],[-3.9491,56.1451],[-3.9545,56.1702],[-3.9479,56.1736],[-3.8812,56.1967],[-3.8323,56.1914],[-3.7809,56.2172],[-3.7509,56.2109],[-3.7368,56.1891],[-3.6865,56.1959],[-3.6677,56.1893],[-3.6518,56.2032],[-3.6364,56.1975],[-3.6193,56.2055],[-3.5748,56.1944],[-3.5979,56.1801],[-3.5921,56.1744],[-3.6479,56.1597],[-3.6366,56.1511],[-3.6446,56.1466],[-3.6359,56.1323],[-3.5809,56.1393],[-3.5829,56.1509],[-3.5662,56.1593],[-3.5451,56.158],[-3.54,56.1465],[-3.5254,56.1449],[-3.4522,56.1497],[-3.4171,56.1385],[-3.3693,56.1456],[-3.3717,56.1644],[-3.3413,56.1738],[-3.306,56.1673],[-3.2929,56.1734],[-3.3087,56.1852],[-3.26,56.1959],[-3.2755,56.215],[-3.2665,56.2196],[-3.2902,56.225],[-3.2826,56.2346],[-3.3675,56.2397],[-3.3503,56.2557],[-3.3817,56.2676],[-3.3356,56.2894],[-3.3249,56.2828],[-3.2922,56.2889],[-3.3001,56.3095],[-3.2944,56.3117],[-3.3007,56.3143],[-3.2665,56.3281],[-3.2729,56.334],[-3.2561,56.3401],[-3.256,56.3464],[-3.2787,56.3507],[-3.2766,56.3563],[-3.2103,56.3659],[-3.0404,56.4206],[-2.9942,56.4264],[-2.9233,56.4561],[-2.8757,56.4569],[-2.855,56.4445],[-2.81,56.4505],[-2.7938,56.4355],[-2.8017,56.3964],[-2.8211,56.3728],[-2.8063,56.3666],[-2.795,56.3497],[-2.7688,56.338],[-2.6559,56.3225],[-2.6227,56.2977],[-2.5811,56.2837],[-2.5788,56.2754],[-2.6787,56.2208],[-2.777,56.1958],[-2.8069,56.1808],[-2.8711,56.1835],[-2.8864,56.191],[-2.8885,56.2008],[-2.9101,56.2056],[-2.966,56.202],[-3.0758,56.1379],[-3.1392,56.1134],[-3.1537,56.076],[-3.1682,56.061],[-3.2292,56.0499],[-3.2755,56.0526],[-3.288,56.0306],[-3.2647,56.0102],[-3.2725,55.9952],[-3.2058,55.9862],[-3.1758,55.9947],[-3.0885,55.9539],[-3.0165,55.9574],[-2.9706,55.9746],[-2.9095,55.9845],[-2.8936,55.9975],[-2.8939,56.014],[-2.8658,56.0178],[-2.8712,56.0394],[-2.844,56.0458],[-2.8174,56.0714],[-2.7158,56.0798],[-2.6663,56.0642],[-2.6356,56.0836],[-2.5983,56.0353],[-2.5743,56.0262],[-2.5759,56.0161],[-2.5528,56.0082],[-2.5121,56.0106],[-2.4403,55.992],[-2.3776,55.9554],[-2.3258,55.9368],[-2.2611,55.9295],[-2.2192,55.9369],[-2.1688,55.9215],[-2.1313,55.9206],[-2.1159,55.8883],[-2.0676,55.8752],[-2.0586,55.8469],[-1.9918,55.7884],[-1.9778,55.7573],[-1.9489,55.7356],[-1.8746,55.6986],[-1.7714,55.6869],[-1.7722,55.6593],[-1.8062,55.6627],[-1.875,55.6319],[-1.9139,55.6272],[-1.9306,55.6333],[-1.9868,55.6165],[-2.037,55.6307],[-2.0417,55.6181],[-2.0615,55.617],[-2.0565,55.6118],[-2.0697,55.6066],[-2.0712,55.5921],[-2.0954,55.5951],[-2.141,55.5809],[-2.1591,55.5895],[-2.1579,55.5999],[-2.1966,55.6066],[-2.2435,55.5559],[-2.2324,55.545],[-2.2345,55.5159],[-2.2028,55.4907],[-2.2057,55.4827],[-2.1653,55.4699],[-2.189,55.4622],[-2.1938,55.444],[-2.2311,55.4297],[-2.27,55.4302],[-2.31,55.4077],[-2.3324,55.4099],[-2.345,55.3993],[-2.3301,55.3812],[-2.3459,55.373],[-2.3373,55.3669],[-2.3816,55.3508],[-2.3971,55.3491],[-2.4153,55.3592],[-2.4788,55.3557],[-2.5199,55.3232],[-2.559,55.3179],[-2.5573,55.3114],[-2.5734,55.2969],[-2.6092,55.2833],[-2.6267,55.2622],[-2.6424,55.2606],[-2.6115,55.2474],[-2.6307,55.2445],[-2.6315,55.2237],[-2.6655,55.2212],[-2.7043,55.1733],[-2.7329,55.1682],[-2.7914,55.1406],[-2.8253,55.1399],[-2.8328,55.1326],[-2.8279,55.1245],[-2.8719,55.1065],[-2.8978,55.078],[-2.9399,55.0699],[-2.9404,55.06],[-3.0496,55.056],[-3.0525,55.0481],[-3.0251,55.0367],[-3.0341,55.0309],[-3.0294,55.0261],[-3.0489,55.01],[-3.0416,54.9996],[-3.0853,54.9725],[-3.1104,54.973],[-3.1452,54.9601],[-3.2043,54.9717],[-3.2678,54.9617],[-3.3215,54.9734],[-3.3719,54.9676],[-3.4309,54.9815],[-3.4595,54.9677],[-3.5096,54.9606],[-3.5375,54.9643],[-3.5687,54.9819],[-3.5799,54.9361],[-3.557,54.9054],[-3.6198,54.8491],[-3.6376,54.8508],[-3.6487,54.8745],[-3.7054,54.8789],[-3.7807,54.8489],[-3.8332,54.8128],[-3.9801,54.7643],[-4.087,54.7601],[-4.1247,54.7736],[-4.1586,54.775],[-4.2715,54.8319],[-4.3663,54.8592],[-4.3894,54.8763],[-4.3919,54.8876],[-4.4047,54.8883],[-4.4261,54.8712],[-4.4047,54.8309],[-4.3496,54.8168],[-4.334,54.7992],[-4.3523,54.7821],[-4.3477,54.7579],[-4.3567,54.7294],[-4.3437,54.7176],[-4.343,54.706],[-4.3616,54.686],[-4.394,54.6731],[-4.5212,54.7093],[-4.5534,54.7302],[-4.5775,54.7352],[-4.604,54.771],[-4.6832,54.7998],[-4.715,54.8203]]],[[[-3.1264,56.025],[-3.127,56.0265],[-3.1261,56.0255],[-3.1264,56.025]]],[[[-3.134,56.0367],[-3.1288,56.028],[-3.138,56.0345],[-3.134,56.0367]]],[[[-2.5578,56.1828],[-2.5606,56.192],[-2.5437,56.1816],[-2.5578,56.1828]]]]}},{"type":"Feature","properties":{"gsp":"P"},"geometry":{"type":"MultiPolygon","coordinates":[[[[-5.3287,55.8245],[-5.3082,55.7866],[-5.3143,55.7663],[-5.3911,55.7453],[-5.429,55.7177],[-5.4409,55.7073],[-5.4426,55.6885],[-5.4727,55.6421],[-5.4689,55.6056],[-5.4536,55.5916],[-5.4531,55.575],[-5.4668,55.5653],[-5.4816,55.5731],[-5.4842,55.5297],[-5.4962,55.5217],[-5.5063,55.4861],[-5.5384,55.4635],[-5.5114,55.367],[-5.5633,55.3142],[-5.5654,55.2998],[-5.5349,55.2825],[-5.5767,55.2708],[-5.6035,55.2751],[-5.6164,55.301],[-5.6815,55.3023],[-5.7217,55.287],[-5.7611,55.2836],[-5.8056,55.2961],[-5.8134,55.3089],[-5.807,55.3352],[-5.8127,55.364],[-5.8038,55.3934],[-5.7562,55.4268],[-5.7284,55.4347],[-5.7228,55.5204],[-5.7138,55.5368],[-5.7249,55.5773],[-5.6967,55.6013],[-5.6731,55.6689],[-5.6822,55.6766],[-5.716,55.6785],[-5.7426,55.6264],[-5.7558,55.6213],[-5.7855,55.6558],[-5.7831,55.677],[-5.7283,55.7436],[-5.6788,55.7312],[-5.7209,55.7082],[-5.7185,55.6922],[-5.6827,55.6876],[-5.6425,55.7014],[-5.6104,55.7368],[-5.6276,55.7784],[-5.6608,55.7902],[-5.676,55.8044],[-5.6789,55.8161],[-5.6655,55.8577],[-5.7184,55.906],[-5.7498,55.9055],[-5.7452,55.9174],[-5.7221,55.9317],[-5.7549,55.9459],[-5.7178,55.9578],[-5.6797,56.0164],[-5.6466,56.0477],[-5.6682,56.0746],[-5.6182,56.0689],[-5.6042,56.0833],[-5.6507,56.1191],[-5.679,56.1106],[-5.701,56.0918],[-5.7615,56.0215],[-5.8283,55.9625],[-5.846,55.9264],[-5.8677,55.9043],[-5.8666,55.8872],[-5.9431,55.8166],[-5.9581,55.7909],[-5.9906,55.7822],[-6.0289,55.7842],[-6.04,55.7735],[-6.0432,55.7424],[-6.0217,55.7269],[-6.0303,55.7075],[-6.0164,55.6958],[-6.0097,55.6716],[-6.0372,55.6509],[-6.1402,55.6096],[-6.1882,55.6145],[-6.2237,55.6017],[-6.2626,55.575],[-6.3006,55.5752],[-6.3454,55.5867],[-6.3471,55.6121],[-6.3127,55.6489],[-6.2751,55.6559],[-6.2697,55.6664],[-6.3,55.7035],[-6.3463,55.7146],[-6.3423,55.7374],[-6.3655,55.738],[-6.4143,55.6988],[-6.4776,55.6685],[-6.523,55.6709],[-6.5396,55.6963],[-6.4644,55.7745],[-6.4942,55.7917],[-6.4662,55.8122],[-6.4715,55.8289],[-6.4602,55.8538],[-6.4319,55.863],[-6.3992,55.8616],[-6.3356,55.9058],[-6.3216,55.9014],[-6.3166,55.8766],[-6.2839,55.8804],[-6.1639,55.9464],[-6.1196,55.9393],[-6.1115,55.9163],[-6.0825,55.908],[-6.0494,55.9416],[-6.0128,55.9536],[-6.0082,55.9894],[-5.9609,56.0366],[-5.7581,56.1319],[-5.7604,56.1712],[-5.7372,56.1909],[-5.7355,56.2235],[-5.7741,56.2313],[-5.8133,56.2088],[-5.8254,56.2143],[-5.822,56.2225],[-5.7739,56.2503],[-5.7447,56.2562],[-5.7191,56.2474],[-5.6628,56.2672],[-5.6819,56.3086],[-5.677,56.3183],[-5.659,56.3271],[-5.622,56.327],[-5.5677,56.3474],[-5.5675,56.3669],[-5.5757,56.3726],[-5.6197,56.3616],[-5.6261,56.3706],[-5.567,56.4117],[-5.5093,56.4276],[-5.4534,56.4563],[-5.4708,56.4753],[-5.5488,56.47],[-5.6331,56.4394],[-5.6597,56.388],[-5.6831,56.3776],[-5.702,56.3578],[-5.8305,56.3054],[-5.8913,56.3158],[-5.8951,56.3241],[-5.8737,56.3342],[-5.8937,56.3433],[-5.9305,56.3175],[-6.0434,56.2885],[-6.0794,56.295],[-6.1204,56.2921],[-6.1419,56.2799],[-6.2223,56.278],[-6.2638,56.2601],[-6.304,56.2611],[-6.346,56.2451],[-6.356,56.2489],[-6.3657,56.2709],[-6.4231,56.291],[-6.4527,56.2788],[-6.4673,56.2829],[-6.4686,56.2946],[-6.4467,56.3303],[-6.4758,56.348],[-6.4606,56.352],[-6.424,56.3445],[-6.3741,56.3572],[-6.264,56.3384],[-6.2277,56.3496],[-6.2146,56.3625],[-6.2114,56.3874],[-6.1668,56.409],[-6.1622,56.4217],[-6.1962,56.4532],[-6.2618,56.4406],[-6.3167,56.4673],[-6.3179,56.4966],[-6.3,56.5035],[-6.2969,56.5189],[-6.3222,56.5265],[-6.3669,56.5167],[-6.4216,56.4777],[-6.481,56.454],[-6.4776,56.4647],[-6.4433,56.4823],[-6.4272,56.5032],[-6.3516,56.5377],[-6.3431,56.5551],[-6.3057,56.5678],[-6.3252,56.5776],[-6.333,56.6027],[-6.3286,56.6096],[-6.2392,56.6143],[-6.2335,56.6366],[-6.1312,56.6597],[-6.0449,56.6322],[-6.019,56.6431],[-5.9951,56.6685],[-6.0642,56.6885],[-6.1209,56.6873],[-6.1439,56.6782],[-6.1889,56.6824],[-6.2263,56.7011],[-6.2362,56.7135],[-6.2341,56.7261],[-6.1899,56.7584],[-6.12,56.7693],[-6.0666,56.7644],[-5.9892,56.7741],[-5.9672,56.7878],[-5.9431,56.7812],[-5.9091,56.7575],[-5.9003,56.7605],[-5.9023,56.7779],[-5.8872,56.8208],[-5.859,56.8364],[-5.8148,56.8427],[-5.8023,56.857],[-5.865,56.8762],[-5.884,56.859],[-5.9027,56.8586],[-5.9435,56.9034],[-5.8713,56.9457],[-5.8369,57.0101],[-5.7271,57.0208],[-5.7007,56.9926],[-5.6676,56.9811],[-5.6287,56.9802],[-5.5267,56.9976],[-5.4395,57.0246],[-5.702,57.0705],[-5.7513,57.0709],[-5.8039,57.0595],[-5.7794,57.0838],[-5.7414,57.1],[-5.7273,57.1203],[-5.6679,57.1282],[-5.6689,57.1389],[-5.704,57.1586],[-5.7495,57.168],[-5.7999,57.1183],[-5.8233,57.1044],[-5.8474,57.1034],[-5.879,57.0763],[-5.8882,57.058],[-5.9178,57.0404],[-5.9581,57.0239],[-6.0232,57.0136],[-6.0458,57.0546],[-6.0175,57.076],[-6.0165,57.0911],[-6.0025,57.1086],[-6.0116,57.1185],[-5.9866,57.1413],[-5.9527,57.1506],[-5.9282,57.1675],[-5.9969,57.1647],[-6.0172,57.1985],[-6.0226,57.1814],[-6.0394,57.1721],[-6.0692,57.1307],[-6.0959,57.1182],[-6.1195,57.1362],[-6.1116,57.167],[-6.1188,57.1832],[-6.1555,57.1868],[-6.1765,57.1498],[-6.1969,57.1416],[-6.1994,57.132],[-6.2511,57.124],[-6.2686,57.1468],[-6.3313,57.1596],[-6.2927,57.1947],[-6.3478,57.1811],[-6.4058,57.2141],[-6.4564,57.2603],[-6.4694,57.2824],[-6.4877,57.2885],[-6.4901,57.3073],[-6.5199,57.3289],[-6.5326,57.3487],[-6.5729,57.3277],[-6.6278,57.3441],[-6.6744,57.3298],[-6.7016,57.3611],[-6.7258,57.3695],[-6.7435,57.3861],[-6.7394,57.3976],[-6.7482,57.4134],[-6.7698,57.4225],[-6.7934,57.4171],[-6.7958,57.432],[-6.7885,57.459],[-6.7511,57.4626],[-6.7562,57.4986],[-6.7393,57.5108],[-6.7108,57.5161],[-6.6876,57.4959],[-6.6572,57.505],[-6.6635,57.552],[-6.6504,57.5625],[-6.6455,57.6037],[-6.6371,57.6115],[-6.5921,57.599],[-6.5416,57.6037],[-6.5078,57.5953],[-6.5019,57.5811],[-6.5113,57.5734],[-6.5256,57.574],[-6.5396,57.5903],[-6.562,57.5793],[-6.5598,57.5538],[-6.5003,57.5376],[-6.4615,57.5105],[-6.4524,57.5114],[-6.4133,57.5361],[-6.402,57.5704],[-6.3775,57.5791],[-6.4027,57.584],[-6.4073,57.6133],[-6.4352,57.6404],[-6.417,57.6552],[-6.44,57.6862],[-6.4257,57.6877],[-6.4015,57.6651],[-6.3799,57.6657],[-6.3656,57.6854],[-6.362,57.7093],[-6.3287,57.7054],[-6.3093,57.7285],[-6.2955,57.7317],[-6.2856,57.7244],[-6.2852,57.695],[-6.2185,57.6717],[-6.1612,57.6068],[-6.1296,57.5882],[-6.1375,57.5684],[-6.1349,57.5135],[-6.1234,57.4834],[-6.1402,57.427],[-6.1672,57.4096],[-6.1219,57.4016],[-6.0907,57.4062],[-6.0855,57.44],[-6.0448,57.4831],[-6.009,57.5453],[-5.9943,57.5509],[-5.9972,57.5693],[-5.9898,57.5822],[-5.9621,57.5858],[-5.95,57.5802],[-5.947,57.5661],[-5.9766,57.4795],[-5.9956,57.4503],[-6.0239,57.4313],[-6.0093,57.3883],[-5.9861,57.3692],[-5.993,57.3465],[-5.9854,57.3322],[-5.9396,57.334],[-5.8888,57.3187],[-5.8771,57.3068],[-5.9163,57.2905],[-5.9145,57.2807],[-5.8531,57.286],[-5.8149,57.2617],[-5.75,57.2898],[-5.7278,57.3171],[-5.6929,57.331],[-5.6918,57.3424],[-5.671,57.3507],[-5.6608,57.3654],[-5.69,57.3678],[-5.7273,57.3506],[-5.8328,57.3286],[-5.8511,57.3336],[-5.8657,57.3526],[-5.846,57.3769],[-5.8325,57.4206],[-5.8195,57.4369],[-5.8594,57.4389],[-5.8805,57.4723],[-5.8492,57.5774],[-5.8133,57.5893],[-5.7559,57.5659],[-5.7096,57.5729],[-5.736,57.584],[-5.7503,57.6102],[-5.8029,57.6134],[-5.827,57.6379],[-5.8176,57.6629],[-5.798,57.6827],[-5.7964,57.6971],[-5.7452,57.7114],[-5.738,57.7224],[-5.8105,57.722],[-5.8308,57.7301],[-5.8116,57.7866],[-5.8254,57.8297],[-5.823,57.8571],[-5.7594,57.8736],[-5.6653,57.8826],[-5.6487,57.9103],[-5.6204,57.9282],[-5.5538,57.9176],[-5.5425,57.8828],[-5.5308,57.8706],[-5.5111,57.867],[-5.4896,57.8818],[-5.4839,57.9005],[-5.4044,57.9096],[-5.4145,57.9306],[-5.3803,57.9377],[-5.3602,57.9879],[-5.3948,57.9931],[-5.4416,57.9552],[-5.5183,57.9494],[-5.5333,57.961],[-5.5161,57.9902],[-5.4707,57.9997],[-5.4683,58.0104],[-5.4814,58.0316],[-5.4635,58.0843],[-5.4435,58.1061],[-5.4173,58.1067],[-5.3616,58.0789],[-5.3104,58.0874],[-5.3187,58.1073],[-5.3577,58.1284],[-5.3365,58.1457],[-5.3219,58.1747],[-5.3434,58.1816],[-5.3703,58.2147],[-5.4089,58.2328],[-5.4105,58.2399],[-5.3985,58.2571],[-5.3764,58.2673],[-5.3485,58.2552],[-5.2979,58.2577],[-5.2666,58.2722],[-5.2066,58.2584],[-5.1713,58.2637],[-5.1678,58.2781],[-5.2175,58.2857],[-5.185,58.3382],[-5.2155,58.3724],[-5.2161,58.3819],[-5.1598,58.4035],[-5.1458,58.4374],[-5.0959,58.4519],[-5.0966,58.4614],[-5.1468,58.4747],[-5.1252,58.5057],[-5.126,58.5463],[-5.1134,58.5502],[-5.0739,58.5401],[-5.0561,58.5461],[-5.0294,58.5778],[-5.0191,58.6208],[-4.9956,58.6398],[-4.9778,58.6401],[-4.967,58.6236],[-4.8662,58.6215],[-4.8153,58.5944],[-4.7665,58.6076],[-4.7354,58.5849],[-4.7311,58.5735],[-4.6549,58.5774],[-4.6319,58.5602],[-4.6103,58.5628],[-4.5986,58.5779],[-4.582,58.5838],[-4.514,58.5818],[-4.4461,58.5596],[-4.3987,58.5541],[-4.3609,58.5663],[-4.3267,58.5649],[-4.2516,58.5309],[-4.2168,58.5552],[-4.1666,58.5611],[-4.1526,58.5697],[-4.0744,58.5696],[-4.0498,58.5935],[-4.0238,58.6059],[-4.0092,58.6018],[-3.9963,58.5729],[-3.9557,58.5786],[-3.9145,58.5685],[-3.7856,58.5731],[-3.6571,58.6235],[-3.5387,58.6266],[-3.5283,58.621],[-3.5373,58.606],[-3.5262,58.6021],[-3.4598,58.6157],[-3.3717,58.5997],[-3.3576,58.6137],[-3.4219,58.6385],[-3.4057,58.667],[-3.3669,58.6741],[-3.3378,58.652],[-3.3068,58.649],[-3.2737,58.6567],[-3.2313,58.6547],[-3.1497,58.671],[-3.1207,58.7006],[-3.0945,58.6841],[-3.0974,58.6718],[-3.0811,58.6494],[-3.0185,58.6441],[-3.0364,58.5956],[-3.0601,58.5878],[-3.0537,58.5798],[-3.0614,58.5615],[-3.1245,58.5155],[-3.1256,58.4997],[-3.113,58.4813],[-3.0522,58.4829],[-3.0407,58.4762],[-3.0438,58.4481],[-3.0647,58.4361],[-3.0635,58.4257],[-3.1044,58.3665],[-3.2146,58.3018],[-3.383,58.2623],[-3.4234,58.2373],[-3.509,58.1645],[-3.6546,58.1079],[-3.7419,58.0649],[-3.7962,58.0546],[-3.8275,58.0346],[-3.8426,58.004],[-3.8897,57.984],[-3.9759,57.9666],[-3.996,57.9319],[-3.9848,57.9038],[-4.0037,57.8881],[-4.0074,57.856],[-4.0661,57.8631],[-4.107,57.8459],[-4.1252,57.8473],[-4.0483,57.8207],[-3.964,57.8496],[-3.8749,57.8271],[-3.8386,57.8386],[-3.8129,57.8655],[-3.7666,57.867],[-3.7864,57.8352],[-3.9081,57.7499],[-3.9691,57.6914],[-4.0269,57.687],[-3.9861,57.6756],[-4.0936,57.6054],[-4.1029,57.5893],[-4.0843,57.5711],[-4.1328,57.5735],[-4.1618,57.5628],[-4.2253,57.4996],[-4.1694,57.4944],[-4.1569,57.5033],[-4.1529,57.5197],[-4.1268,57.5215],[-4.1055,57.5391],[-4.0498,57.5615],[-4.0518,57.5715],[-4.081,57.5786],[-4.0815,57.5857],[-4.0599,57.5947],[-4.0226,57.5959],[-4.0163,57.6065],[-3.9318,57.5904],[-3.8535,57.5971],[-3.828,57.6037],[-3.8295,57.6131],[-3.8103,57.6246],[-3.7108,57.6601],[-3.5372,57.6671],[-3.5045,57.6804],[-3.4976,57.6934],[-3.5059,57.7032],[-3.4994,57.7083],[-3.3372,57.729],[-3.277,57.7283],[-3.2496,57.7123],[-3.181,57.6941],[-3.0308,57.6691],[-2.924,57.7011],[-2.8578,57.7104],[-2.8311,57.6986],[-2.7917,57.704],[-2.7384,57.6896],[-2.666,57.6938],[-2.634,57.6854],[-2.5722,57.6855],[-2.5384,57.6741],[-2.3917,57.673],[-2.3491,57.6777],[-2.3248,57.6935],[-2.2987,57.6991],[-2.2614,57.6859],[-2.1895,57.6768],[-2.1236,57.704],[-2.0429,57.697],[-1.9996,57.7018],[-1.9855,57.6944],[-1.9842,57.6828],[-1.9172,57.6781],[-1.8705,57.6342],[-1.8187,57.6164],[-1.8187,57.5821],[-1.7968,57.5559],[-1.799,57.5319],[-1.7615,57.5076],[-1.7633,57.496],[-1.7798,57.4835],[-1.7605,57.4681],[-1.8286,57.4092],[-1.8541,57.4044],[-1.8538,57.3871],[-1.9666,57.3211],[-2.0328,57.2469],[-2.0577,57.2038],[-2.071,57.1599],[-2.0678,57.1514],[-2.0415,57.1399],[-2.0431,57.1244],[-2.087,57.0664],[-2.1508,57.0148],[-2.1718,56.9777],[-2.1942,56.9668],[-2.1835,56.9519],[-2.1885,56.9095],[-2.209,56.8788],[-2.3137,56.7962],[-2.3717,56.7707],[-2.3979,56.7688],[-2.4145,56.7556],[-2.4397,56.7109],[-2.4291,56.7018],[-2.4339,56.6857],[-2.4947,56.6557],[-2.4971,56.6379],[-2.4716,56.6236],[-2.5135,56.5802],[-2.5393,56.5605],[-2.6041,56.5451],[-2.632,56.5234],[-2.7059,56.4939],[-2.7141,56.473],[-2.7309,56.4602],[-2.7986,56.4759],[-2.8654,56.4591],[-2.9303,56.4609],[-2.9858,56.4465],[-3.0492,56.4524],[-3.1211,56.4273],[-3.2247,56.364],[-3.2766,56.3563],[-3.2787,56.3507],[-3.256,56.3464],[-3.2561,56.3401],[-3.2729,56.334],[-3.2665,56.3281],[-3.3007,56.3143],[-3.2944,56.3117],[-3.3001,56.3095],[-3.2922,56.2889],[-3.3249,56.2828],[-3.3356,56.2894],[-3.3817,56.2676],[-3.3503,56.2557],[-3.3675,56.2397],[-3.2855,56.2352],[-3.2902,56.225],[-3.2665,56.2196],[-3.2755,56.215],[-3.26,56.1959],[-3.3087,56.1852],[-3.2966,56.1706],[-3.3459,56.1728],[-3.3717,56.1644],[-3.3693,56.1456],[-3.4171,56.1385],[-3.4522,56.1497],[-3.54,56.1465],[-3.5451,56.158],[-3.5688,56.1591],[-3.5829,56.1509],[-3.5809,56.1393],[-3.6359,56.1323],[-3.6446,56.1466],[-3.6366,56.1511],[-3.6479,56.1597],[-3.5921,56.1744],[-3.5979,56.1801],[-3.5748,56.1944],[-3.6193,56.2055],[-3.6364,56.1975],[-3.6518,56.2032],[-3.6677,56.1893],[-3.6865,56.1959],[-3.7368,56.1891],[-3.7509,56.2109],[-3.7809,56.2172],[-3.8323,56.1914],[-3.8812,56.1967],[-3.9479,56.1736],[-3.9545,56.1702],[-3.9491,56.1451],[-3.9819,56.1428],[-3.9757,56.1335],[-3.9862,56.1215],[-4.0376,56.1306],[-4.0589,56.1122],[-4.1038,56.0986],[-4.129,56.0682],[-4.1175,56.0587],[-4.1325,56.0452],[-4.1262,56.0359],[-4.1102,56.0331],[-4.1127,56.0257],[-4.0987,56.0225],[-4.1261,56.0096],[-4.1524,56.008],[-4.1636,56.0303],[-4.1965,56.0089],[-4.2208,56.0198],[-4.257,56.0172],[-4.2811,56.0306],[-4.3486,56.0202],[-4.3752,56.0231],[-4.3899,56.0148],[-4.3911,55.997],[-4.4003,55.9947],[-4.5127,56.0275],[-4.5619,56.0299],[-4.6015,56.0202],[-4.6178,56.0363],[-4.6396,56.0359],[-4.6461,56.0279],[-4.6734,56.0236],[-4.6988,56.0747],[-4.7833,56.1094],[-4.7933,56.1274],[-4.8183,56.1387],[-4.8673,56.0917],[-4.8903,56.0582],[-4.8692,55.9709],[-4.9047,55.9373],[-4.9261,55.8955],[-4.9333,55.8561],[-4.953,55.8274],[-4.8901,55.7991],[-4.8782,55.7757],[-4.8937,55.7483],[-4.9208,55.7257],[-4.9301,55.7023],[-5.0041,55.7219],[-5.0382,55.7194],[-5.056,55.7306],[-5.0703,55.7561],[-5.1018,55.7716],[-5.1219,55.7674],[-5.1654,55.7746],[-5.1741,55.7866],[-5.1736,55.8029],[-5.1504,55.8215],[-5.141,55.8446],[-5.1811,55.8376],[-5.2052,55.8219],[-5.2358,55.8344],[-5.2963,55.8417],[-5.3287,55.8245]]],[[[-5.2531,55.435],[-5.3228,55.4629],[-5.3361,55.4795],[-5.3376,55.4953],[-5.3632,55.5055],[-5.3621,55.5292],[-5.3517,55.5457],[-5.3568,55.5666],[-5.4057,55.6162],[-5.3752,55.6774],[-5.2808,55.7245],[-5.2163,55.7129],[-5.1528,55.6795],[-5.1211,55.6121],[-5.1448,55.5848],[-5.1021,55.5739],[-5.0765,55.5542],[-5.0523,55.517],[-5.0842,55.4967],[-5.0744,55.4554],[-5.1127,55.4213],[-5.1517,55.4365],[-5.1957,55.4291],[-5.2531,55.435]]],[[[-6.2291,55.9929],[-6.2847,55.9936],[-6.2856,56.0396],[-6.267,56.0493],[-6.2579,56.0803],[-6.2377,56.0959],[-6.2155,56.1087],[-6.1887,56.1097],[-6.1844,56.1211],[-6.1556,56.1357],[-6.137,56.1321],[-6.1274,56.1183],[-6.1812,56.0591],[-6.1778,56.0412],[-6.2129,56.0012],[-6.2291,55.9929]]],[[[-6.6698,56.5773],[-6.7021,56.5312],[-6.7948,56.4989],[-6.8083,56.4843],[-6.8695,56.4836],[-6.8871,56.4715],[-6.8835,56.4451],[-6.9064,56.4367],[-6.9386,56.4396],[-6.9555,56.454],[-6.9859,56.4485],[-6.9903,56.4561],[-6.9828,56.468],[-7.0065,56.5018],[-6.9545,56.532],[-6.9112,56.5349],[-6.875,56.523],[-6.8342,56.5423],[-6.7761,56.551],[-6.653,56.6109],[-6.626,56.6257],[-6.6193,56.6393],[-6.5379,56.6789],[-6.4413,56.7132],[-6.4259,56.7116],[-6.4638,56.651],[-6.5187,56.6014],[-6.5647,56.5827],[-6.5992,56.5783],[-6.6288,56.5584],[-6.6587,56.5779],[-6.6698,56.5773]]],[[[-6.6347,57.8582],[-6.6588,57.847],[-6.7051,57.8459],[-6.7285,57.8335],[-6.7333,57.8231],[-6.7787,57.8037],[-6.8213,57.7989],[-6.87,57.7706],[-6.8913,57.7681],[-7.0121,57.6877],[-7.049,57.6903],[-7.0538,57.6768],[-7.0338,57.666],[-7.0356,57.6553],[-7.0805,57.6194],[-7.093,57.5855],[-7.1264,57.5574],[-7.1351,57.5008],[-7.1841,57.4299],[-7.1804,57.3975],[-7.2071,57.379],[-7.199,57.3459],[-7.2112,57.3287],[-7.186,57.2967],[-7.198,57.2785],[-7.235,57.2651],[-7.2368,57.2482],[-7.2529,57.2307],[-7.253,57.2111],[-7.2339,57.1908],[-7.2476,57.1521],[-7.2363,57.1318],[-7.2043,57.1173],[-7.2205,57.1001],[-7.2216,57.0844],[-7.2703,57.0713],[-7.2861,57.0454],[-7.3155,57.0253],[-7.3148,57.0138],[-7.3489,56.9682],[-7.3994,56.9758],[-7.4394,56.9435],[-7.4293,56.9188],[-7.4346,56.9112],[-7.491,56.9144],[-7.485,56.8881],[-7.4921,56.8799],[-7.5403,56.8712],[-7.5436,56.8461],[-7.5814,56.8433],[-7.6034,56.83],[-7.6169,56.8111],[-7.6027,56.7795],[-7.6375,56.7735],[-7.6694,56.7826],[-7.6766,56.8021],[-7.668,56.8231],[-7.6009,56.8611],[-7.5891,56.8756],[-7.5704,56.9181],[-7.5876,56.937],[-7.5577,56.9732],[-7.5279,56.9788],[-7.5318,56.9884],[-7.5192,56.9934],[-7.5182,57.0044],[-7.5343,57.0153],[-7.4636,57.0285],[-7.4587,57.0374],[-7.4639,57.0581],[-7.4543,57.0716],[-7.3979,57.0676],[-7.3779,57.0836],[-7.3862,57.1057],[-7.422,57.1291],[-7.4199,57.1611],[-7.4338,57.188],[-7.4416,57.2307],[-7.4672,57.2419],[-7.4352,57.2527],[-7.4339,57.2672],[-7.4451,57.2887],[-7.408,57.3031],[-7.4112,57.3521],[-7.4396,57.3858],[-7.4088,57.3991],[-7.4024,57.4348],[-7.4181,57.4498],[-7.4195,57.4667],[-7.3847,57.4982],[-7.3811,57.5148],[-7.419,57.5445],[-7.4879,57.5659],[-7.5412,57.5951],[-7.6025,57.6026],[-7.5547,57.6098],[-7.5103,57.6333],[-7.4947,57.6635],[-7.3809,57.6738],[-7.3301,57.6917],[-7.292,57.742],[-7.2801,57.7393],[-7.2675,57.7197],[-7.2318,57.7132],[-7.2019,57.7393],[-7.1481,57.74],[-7.1367,57.7306],[-7.1565,57.6926],[-7.1455,57.681],[-7.1097,57.6812],[-7.0662,57.7135],[-7.1052,57.745],[-7.1058,57.7693],[-7.0925,57.7773],[-7.0865,57.7977],[-7.1795,57.8294],[-7.1071,57.8457],[-7.0652,57.8276],[-7.028,57.8414],[-7.0114,57.8574],[-7.0277,57.8816],[-7.042,57.8864],[-7.0793,57.8723],[-7.0951,57.8937],[-7.0584,57.904],[-6.9971,57.9424],[-7.0836,57.9631],[-7.094,57.9829],[-7.1159,57.9833],[-7.1594,58.0053],[-7.1774,58.0261],[-7.146,58.0768],[-7.1433,58.1324],[-7.1276,58.1525],[-7.1232,58.1789],[-7.102,58.1911],[-7.0761,58.1927],[-7.0587,58.232],[-7.0383,58.2458],[-7.0224,58.2472],[-6.9778,58.227],[-6.9424,58.2603],[-6.9268,58.2879],[-6.8815,58.2957],[-6.8381,58.2918],[-6.8046,58.3103],[-6.764,58.3135],[-6.6726,58.354],[-6.6517,58.3583],[-6.6236,58.352],[-6.5559,58.371],[-6.5279,58.3998],[-6.3639,58.4638],[-6.3415,58.4812],[-6.2929,58.4942],[-6.2855,58.4995],[-6.2941,58.5111],[-6.2757,58.5192],[-6.2541,58.5187],[-6.2214,58.5036],[-6.2155,58.4896],[-6.1778,58.4694],[-6.186,58.4483],[-6.1633,58.4292],[-6.1644,58.4167],[-6.183,58.4063],[-6.2065,58.3673],[-6.1581,58.3422],[-6.1942,58.3347],[-6.2318,58.3106],[-6.2402,58.293],[-6.2735,58.2882],[-6.2794,58.2668],[-6.3197,58.2631],[-6.3129,58.2449],[-6.3379,58.232],[-6.2891,58.213],[-6.2366,58.2306],[-6.2111,58.2505],[-6.1705,58.2668],[-6.1397,58.2668],[-6.1309,58.2552],[-6.1536,58.2301],[-6.1503,58.2197],[-6.1967,58.1876],[-6.2259,58.1791],[-6.3224,58.1852],[-6.3627,58.1688],[-6.3604,58.1374],[-6.3674,58.1161],[-6.3592,58.059],[-6.366,58.0471],[-6.3505,58.0371],[-6.3612,58.017],[-6.3828,57.9974],[-6.4138,57.9923],[-6.4404,57.9758],[-6.4679,57.9349],[-6.5155,57.9242],[-6.5296,57.9278],[-6.5349,57.9151],[-6.5699,57.9072],[-6.6347,57.9059],[-6.6602,57.8983],[-6.6347,57.8582]]],[[[-7.6444,57.5153],[-7.6951,57.5122],[-7.7404,57.5435],[-7.6902,57.5339],[-7.585,57.5407],[-7.5731,57.5354],[-7.6118,57.5088],[-7.6444,57.5153]]],[[[-7.2659,57.8069],[-7.2405,57.8057],[-7.1933,57.7719],[-7.2233,57.7557],[-7.2625,57.7626],[-7.2732,57.7753],[-7.2659,57.8069]]],[[[-8.5724,57.7901],[-8.6493,57.8218],[-8.6543,57.8323],[-8.6237,57.8398],[-8.5632,57.8299],[-8.5435,57.8142],[-8.5413,57.7995],[-8.5017,57.7909],[-8.5724,57.7901]]],[[[-8.5186,57.866],[-8.4966,57.8849],[-8.4735,57.8659],[-8.4841,57.859],[-8.5186,57.866]]],[[[-6.4126,57.902],[-6.3377,57.9124],[-6.3178,57.8995],[-6.3533,57.8769],[-6.411,57.8948],[-6.4126,57.902]]],[[[-2.903,58.6711],[-2.9196,58.6702],[-2.9421,58.69],[-2.9139,58.695],[-2.903,58.6711]]],[[[-3.0738,58.7359],[-3.0506,58.7525],[-3.054,58.7403],[-3.0738,58.7359]]],[[[-2.9132,59.1821],[-2.9008,59.1625],[-2.9105,59.1276],[-2.9437,59.1135],[-2.9387,59.0937],[-2.8967,59.0805],[-2.8843,59.0664],[-2.8599,59.0628],[-2.8493,59.0674],[-2.8451,59.0803],[-2.8121,59.0915],[-2.7965,59.0911],[-2.7912,59.0829],[-2.7935,59.0697],[-2.8121,59.0496],[-2.7987,59.0278],[-2.8299,59.0148],[-2.8529,59.0222],[-2.8887,59.018],[-2.9024,58.996],[-2.8868,58.9991],[-2.8803,58.9903],[-2.9088,58.9789],[-2.9085,58.9684],[-2.8937,58.9678],[-2.86,58.9898],[-2.8285,58.986],[-2.7937,58.9948],[-2.7843,58.9819],[-2.7841,58.9644],[-2.8311,58.9555],[-2.8183,58.9479],[-2.7043,58.9767],[-2.6957,58.9635],[-2.708,58.939],[-2.7027,58.926],[-2.6578,58.9006],[-2.688,58.8886],[-2.7418,58.9179],[-2.7875,58.9056],[-2.812,58.8861],[-2.8139,58.8739],[-2.862,58.8449],[-2.8717,58.8158],[-2.897,58.8121],[-2.9163,58.7958],[-2.9131,58.7826],[-2.9261,58.7676],[-2.901,58.7538],[-2.9123,58.7323],[-2.9691,58.7279],[-3.0,58.7537],[-2.9888,58.7684],[-2.9903,58.7802],[-3.0231,58.7966],[-3.0315,58.8124],[-3.0734,58.8098],[-3.1224,58.7834],[-3.1733,58.7736],[-3.2288,58.7676],[-3.2547,58.7759],[-3.2963,58.7738],[-3.3269,58.7919],[-3.3444,58.8166],[-3.3789,58.8353],[-3.3891,58.8644],[-3.442,58.8726],[-3.4195,58.9177],[-3.3609,58.9355],[-3.3401,58.9537],[-3.3622,58.9635],[-3.3749,58.9981],[-3.3723,59.0222],[-3.3614,59.0369],[-3.3667,59.0477],[-3.3555,59.0568],[-3.3651,59.1049],[-3.3482,59.1409],[-3.223,59.1585],[-3.1939,59.1579],[-3.1705,59.1471],[-3.1404,59.1515],[-3.11,59.1896],[-3.0781,59.2044],[-3.0454,59.2012],[-3.0292,59.1832],[-2.9702,59.193],[-2.9132,59.1821]]],[[[-2.5608,59.0329],[-2.5754,59.0272],[-2.5773,59.0375],[-2.5745,59.0389],[-2.5608,59.0329]]],[[[-2.8064,59.2498],[-2.7509,59.2549],[-2.7141,59.2374],[-2.6743,59.2327],[-2.6654,59.244],[-2.6071,59.2738],[-2.6212,59.2819],[-2.6299,59.3017],[-2.6216,59.3111],[-2.5849,59.2993],[-2.5583,59.3103],[-2.5241,59.3062],[-2.5234,59.2967],[-2.5481,59.2857],[-2.5476,59.2739],[-2.5398,59.272],[-2.4874,59.2932],[-2.4591,59.295],[-2.4522,59.3076],[-2.4214,59.3175],[-2.4117,59.3141],[-2.4091,59.2994],[-2.3648,59.2796],[-2.3829,59.2726],[-2.4253,59.272],[-2.4409,59.2798],[-2.4704,59.2755],[-2.5105,59.2411],[-2.4989,59.2286],[-2.5048,59.2205],[-2.5537,59.2346],[-2.5655,59.2181],[-2.588,59.2173],[-2.6172,59.2349],[-2.6299,59.2332],[-2.6409,59.2166],[-2.6633,59.2044],[-2.6639,59.1929],[-2.6283,59.1678],[-2.5751,59.1596],[-2.5659,59.1409],[-2.5941,59.1327],[-2.5966,59.1249],[-2.5336,59.1264],[-2.5416,59.1073],[-2.5195,59.092],[-2.5338,59.0729],[-2.56,59.0794],[-2.6057,59.0686],[-2.6161,59.0755],[-2.6128,59.0935],[-2.6404,59.1028],[-2.6449,59.0992],[-2.6365,59.0879],[-2.6431,59.0753],[-2.6845,59.0716],[-2.698,59.0787],[-2.6803,59.1034],[-2.6949,59.1494],[-2.7705,59.1397],[-2.8361,59.1171],[-2.8408,59.132],[-2.8111,59.1532],[-2.8326,59.1647],[-2.8374,59.1801],[-2.8706,59.2123],[-2.9145,59.2257],[-2.8874,59.2503],[-2.9219,59.2748],[-2.9489,59.2828],[-2.941,59.2724],[-2.9705,59.2642],[-2.969,59.2435],[-2.9837,59.2419],[-3.0031,59.2642],[-3.0314,59.2766],[-3.0319,59.303],[-3.0726,59.3214],[-3.0795,59.3327],[-3.0047,59.3348],[-2.9908,59.3395],[-2.9829,59.3574],[-2.9109,59.3631],[-2.8963,59.3866],[-2.8753,59.3894],[-2.8601,59.3757],[-2.8567,59.3493],[-2.8928,59.3014],[-2.8756,59.288],[-2.8742,59.2762],[-2.8064,59.2498]]],[[[-2.416,59.3453],[-2.4591,59.359],[-2.438,59.3893],[-2.3786,59.3963],[-2.3635,59.3845],[-2.4017,59.3755],[-2.392,59.3563],[-2.416,59.3453]]],[[[-0.7744,60.8016],[-0.7803,60.7418],[-0.8507,60.7166],[-0.8583,60.7048],[-0.8269,60.6961],[-0.8276,60.6597],[-0.8662,60.65],[-0.8579,60.6385],[-0.8254,60.6296],[-0.8116,60.6104],[-0.7659,60.6186],[-0.7592,60.6044],[-0.7653,60.5901],[-0.802,60.5645],[-0.8685,60.5863],[-0.8543,60.5667],[-0.8905,60.5582],[-0.9173,60.5702],[-0.9392,60.5957],[-0.9766,60.5973],[-0.9949,60.5798],[-1.0076,60.5465],[-1.0296,60.542],[-1.0146,60.532],[-1.0264,60.5027],[-1.0203,60.4851],[-1.0653,60.4854],[-1.1292,60.4609],[-1.0903,60.4436],[-1.0499,60.4595],[-1.0345,60.4554],[-1.0491,60.4308],[-1.1054,60.3971],[-0.9882,60.3747],[-0.9676,60.3868],[-0.9045,60.394],[-0.8871,60.3785],[-0.8789,60.3516],[-0.8529,60.3454],[-0.851,60.3387],[-0.9118,60.3215],[-0.9184,60.3268],[-0.9074,60.3414],[-0.9241,60.3506],[-0.9528,60.3454],[-0.9884,60.3249],[-1.0411,60.3278],[-1.0702,60.3196],[-1.0553,60.2803],[-1.0853,60.264],[-1.0822,60.2469],[-1.1456,60.2329],[-1.1795,60.199],[-1.1144,60.2126],[-1.0718,60.1991],[-1.0417,60.1723],[-1.0007,60.153],[-1.0019,60.1313],[-1.0586,60.1195],[-1.0725,60.0992],[-1.128,60.1154],[-1.1614,60.1165],[-1.1854,60.1161],[-1.2083,60.0983],[-1.1917,60.0503],[-1.1678,60.045],[-1.1633,60.0366],[-1.1715,60.03],[-1.2085,60.0308],[-1.2201,60.0217],[-1.1503,59.9964],[-1.2052,59.9681],[-1.224,59.9807],[-1.2579,59.9841],[-1.2466,59.9766],[-1.247,59.958],[-1.2508,59.9359],[-1.2689,59.9155],[-1.2617,59.9069],[-1.2659,59.8516],[-1.3214,59.8465],[-1.3626,59.8839],[-1.3885,59.8866],[-1.4003,59.914],[-1.3741,59.9407],[-1.3738,59.9726],[-1.3595,59.9931],[-1.3797,60.0202],[-1.3865,60.0466],[-1.3603,60.0856],[-1.3861,60.108],[-1.3908,60.1284],[-1.3836,60.1457],[-1.4744,60.1442],[-1.6972,60.2316],[-1.7123,60.2541],[-1.7121,60.295],[-1.7617,60.3377],[-1.731,60.3501],[-1.6672,60.347],[-1.643,60.3151],[-1.5987,60.3125],[-1.5199,60.3234],[-1.4792,60.3603],[-1.4846,60.3757],[-1.4609,60.389],[-1.4547,60.4072],[-1.4752,60.436],[-1.5142,60.4558],[-1.5697,60.47],[-1.6058,60.4633],[-1.6429,60.4711],[-1.6428,60.4873],[-1.6235,60.509],[-1.579,60.5186],[-1.6118,60.5431],[-1.6093,60.5511],[-1.5571,60.5531],[-1.4875,60.568],[-1.4566,60.587],[-1.4466,60.5994],[-1.4488,60.6186],[-1.4393,60.6241],[-1.3635,60.6142],[-1.3537,60.6287],[-1.3259,60.6445],[-1.3274,60.6611],[-1.3166,60.6662],[-1.2929,60.6527],[-1.3016,60.6308],[-1.2941,60.6206],[-1.2956,60.6013],[-1.2641,60.589],[-1.2225,60.5913],[-1.2184,60.6107],[-1.198,60.6379],[-1.1451,60.6734],[-1.1452,60.7106],[-1.1267,60.7386],[-1.0174,60.7329],[-0.9792,60.7423],[-0.9638,60.7667],[-0.9653,60.7929],[-0.946,60.8066],[-0.9462,60.816],[-0.9099,60.8327],[-0.9067,60.8505],[-0.8371,60.8499],[-0.8253,60.8386],[-0.7668,60.8367],[-0.753,60.8161],[-0.7923,60.8101],[-0.7744,60.8016]]],[[[-0.8187,60.3921],[-0.8172,60.3929],[-0.817,60.3925],[-0.8187,60.3921]]],[[[-0.8061,60.391],[-0.8531,60.4109],[-0.8741,60.4424],[-0.8568,60.4436],[-0.8382,60.4234],[-0.7994,60.4221],[-0.7643,60.436],[-0.7189,60.4246],[-0.8061,60.391]]],[[[-0.8919,60.8519],[-0.8872,60.8552],[-0.8873,60.8529],[-0.8919,60.8519]]],[[[-0.8734,60.8599],[-0.8745,60.8614],[-0.87,60.8612],[-0.8734,60.8599]]]]}}]}